X,Y,NAME,LICENSE_NUMBER,FACTYPE,ADDRESS,ADDRESSLINE2,CITY,STATE,ZIPCODE,PHONE,WARD,ANC,SSL,SEASONAL,H1N1,XCOORD,YCOORD,MAR_ID,GIS_ID,GIS_LAST_MOD_DTTM,SE_ANNO_CAD_DATA,GLOBALID,CREATED,EDITED,OBJECTID
-8577006.22629108,4707591.28564632,G W MEDICAL FACULTY ASSOCIATES PHARMACY,RX0000301,,2150 PENNSYLVANIA AVE NW,G201,Washington,DC,20037,202-741-2218,Ward 2,ANC 2A,0075    0048,,,395788.2,137086.96,242494,,2025/05/03 12:55:29+00,,{343BC84E-7826-0C58-E063-782F520A417E},,,6698
-8579568.33526124,4710195.35549738,CVS/PHARMACY #2378,RX1000406,,2226 WISCONSIN AVE NW,,Washington,DC,20007,401-765-1500,Ward 3,ANC 3B,1300    0556,,,393793.35,139108.9,275326,,2025/05/03 12:55:29+00,,{343BC84E-7827-0C58-E063-782F520A417E},,,6699
-8568005.07257438,4701682.78548305,"DISTRICT OF COLUMBIA CVS PHARMACY, LLC DBA CVS PHARMACY #1360",RX2100162,,2724 GOOD HOPE RD SE,,Washington,DC,20020,401-765-1500,Ward 7,ANC 7B,,,,402803.66,132499.74,313186,,2025/05/03 12:55:29+00,,{343BC84E-7828-0C58-E063-782F520A417E},,,6700
-8571784.13665045,4707420.16232822,GIANT PHARMACY #2381,RX0000067,,300 H STREET NE,,Washington,DC,20002,717-240-7541,Ward 6,ANC 6C,"0776    0054,0776    2001,0776    2002,0776    2003",,,399857.33,136953.04,308511,,2025/05/03 12:55:29+00,,{343BC84E-7829-0C58-E063-782F520A417E},,,6701
-8575822.94276164,4711770.7134488,MT. PLEASANT CARE PHARMACY,RX250000129,,3169 MOUNT PLEASANT ST NW,,Washington,DC,20010,202-387-3100,Ward 1,ANC 1D,2595    1037,,,396711.58,140329.3,236420,,2025/05/03 12:55:29+00,,{343BC84E-782A-0C58-E063-782F520A417E},,,6702
-8574324.42599033,4712448.49371145,CVS/PHRMACY #2787,RX1000423,,3642 GEORGIA AVE NW,,Washington,DC,20010,401-765-1500,Ward 1,ANC 1E,2897    0147,,,397878.91,140854.66,308316,,2025/05/03 12:55:29+00,,{343BC84E-782B-0C58-E063-782F520A417E},,,6703
-8579983.85201545,4709077.23730604,MEDSTAR GEORGETOWN UNIVERSITY HOSPITAL PHARMACY,RX1200007,,3800 RESERVOIR RD NW,,Washington,DC,20007,202-444-1522,Ward 2,ANC 2E,"1321    0824,1321    0001",,,393468.94,138241.62,291547,,2025/05/03 12:55:29+00,,{343BC84E-782C-0C58-E063-782F520A417E},,,6704
-8566077.35767749,4706339.94479708,APEX CARE PHARMACY,RX1100437,,3839 MINNESOTA AVE NE,,Washington,DC,20019,202-388-1900,Ward 7,ANC 7F,5050    0084,,,404304.67,136115.85,29919,,2025/05/03 12:55:29+00,,{343BC84E-782D-0C58-E063-782F520A417E},,,6705
-8570020.92494198,4705055.65211437,NAI SATURN EASTERN LLC DBA SAFEWAY PHARMACY # 3217,RX2000158,,415 14TH STREET SE,,Washington,DC,20003,208-395-4303,Ward 6,ANC 6B,"1042    0829,1042    0109,1042    7000",,,401231.56,135117.92,26239,,2025/05/03 12:55:29+00,,{343BC84E-782E-0C58-E063-782F520A417E},,,6706
-8578672.52436185,4713786.64030353,CVS/PHARMACY #1362,RX1000395,,4309 CONNECTICUT AVE NW,,Washington,DC,20008,401-765-1500,Ward 3,ANC 3F,"2049    0805,2049    0006",,,394493.14,141894.2,302109,,2025/05/03 12:55:29+00,,{343BC84E-782F-0C58-E063-782F520A417E},,,6707
-8573644.05114109,4707857.72914527,NAI SATURN EASTERN LLC DBA SAFEWAY PHARMACY #2737,RX0000075,,490 L ST NW,,Washington,DC,20001,208-395-4303,Ward 6,ANC 6E,0515    0158,,,398408.1,137292.77,304767,,2025/05/03 12:55:29+00,,{343BC84E-7830-0C58-E063-782F520A417E},,,6708
-8570477.81810713,4704861.3547313,CVS/PHARMACY #1344,RX1000413,,500 12TH ST SE,,Washington,DC,20003,401-765-1500,Ward 6,ANC 6B,"1019    0828,1019    0029",,,400875.47,134967.05,288394,,2025/05/03 12:55:29+00,,{343BC84E-7831-0C58-E063-782F520A417E},,,6709
-8574619.49534136,4716932.91581335,METRO CARE PHARMACY,RX1200004,,6323 GEORGIA AVE NW,SUITE 5,Washington,DC,20011,202-722-0171,Ward 4,ANC 4B,2978    0040,,,397650.13,144332.45,254165,,2025/05/03 12:55:29+00,,{343BC84E-7832-0C58-E063-782F520A417E},,,6710
-8571221.28776912,4707346.41292139,CVS/ PHARMACY #10287,RX0000089,,645 HST NE,,Washington,DC,20002,401-765-1500,Ward 6,ANC 6C,"0859    0839,0859    0177",,,400295.92,136895.81,288821,,2025/05/03 12:55:29+00,,{343BC84E-7833-0C58-E063-782F520A417E},,,6711
-8574686.0679438,4717302.1580962,CVS/PHARMACY #1364,RX1000373,,6514 GEORGIA AVE NW,,Washington,DC,20012,401-765-1500,Ward 4,ANC 4A,2946    0044,,,397598.39,144618.75,285342,,2025/05/03 12:55:29+00,,{343BC84E-7834-0C58-E063-782F520A417E},,,6712
-8573972.89266451,4707756.59192346,CVS PHARMACY #10685,RX0000100,,675 K  STREET NW,,Washington,DC,20001,401-765-1500,Ward 6,ANC 6E,0451    0033,,,398151.85,137214.34,313510,,2025/05/03 12:55:29+00,,{343BC84E-7835-0C58-E063-782F520A417E},,,7513
-8571064.14346604,4705935.48907383,MORTON 8TH ST. PHARMACY,RX0000106,,724 EAST CAPITOL ST NE,,Washington,DC,20003,443-928-6513,Ward 6,ANC 6C,"0897    0800,0897    0001",,,400418.43,135800.77,77931,,2025/05/03 12:55:29+00,,{343BC84E-7836-0C58-E063-782F520A417E},,,7514
-8572379.57726367,4707660.00205974,35 K STREET PHARMACY,RX0000056,,35 K ST NE,35 K ST NE,Washington,DC,20002,202-442-4954,Ward 6,ANC 6E,"0675    0838,0675    0291",,,399393.36,137139.19,287960,,2025/05/03 12:55:29+00,,{343BC84E-7837-0C58-E063-782F520A417E},,,7515
-8576947.45643703,4707776.51333315,AIDS HEALTHCARE FOUNDATION DBA AHF PHARMACY,RX1900138,,2141 KST NW,STE 707,Washington,DC,20037,310-771-0562,Ward 2,ANC 2A,0073    0079,,,395834.07,137230.68,242481,,2025/05/03 12:55:29+00,,{343BC84E-7838-0C58-E063-782F520A417E},,,7516
-8571264.71930315,4705267.21456989,"AIDS HEALTHCARE FOUNDATION, DBA AHF PHARMACY",RX240000121,,650 PENNSYLVANIA AVE SE,SUITE 380,Washington,DC,20003,202-350-5005,Ward 6,ANC 6B,"0873    0831,0873    0113",,,400262.13,135282.05,280033,,2025/05/03 12:55:29+00,,{343BC84E-7839-0C58-E063-782F520A417E},,,7517
-8572096.71375896,4711616.77471572,APEX CARE SPECIALTY PHARMACY,RX0000059,,210 MICHIGAN AVE NE,,Washington,DC,20017,202-265-2200,Ward 5,ANC 5E,3499    0003,,,399613.92,140209.21,286613,,2025/05/03 12:55:29+00,,{343BC84E-783A-0C58-E063-782F520A417E},,,7518
-8575840.1534882,4709130.28957693,ALPHA PEOPLES DRUGS,RX2200172,,"1638 R STREET, NW",SUITE 1,Washington,DC,20009,202-265-7979,Ward 2,ANC 2B,0179    0115,,,396697.32,138280.78,242787,,2025/05/03 12:55:29+00,,{343BC84E-783B-0C58-E063-782F520A417E},,,7519
-8569366.70614735,4707247.9478257,AMERICAN ICT CORP DBA STERLING PHARMACY,RX250000133,,1647 BENNING ROAD NE,SUITE 101,Washington,DC,20002,202-399-7877,Ward 7,ANC 7D,4510    0151,,,401741.09,136819.58,58546,,2025/05/03 12:55:29+00,,{343BC84E-783C-0C58-E063-782F520A417E},,,7520
-8572527.22225581,4697581.92474398,BELLEVUE PHARMACY,RX0000108,,3939 SOUTH CAPITOL ST SW,,Washington,DC,20032,301-404-6067,Ward 8,ANC 8D,,,,399277.6,129314.35,276605,,2025/05/03 12:55:29+00,,{343BC84E-783D-0C58-E063-782F520A417E},,,7521
-8573073.3017395,4696615.04539896,BRIDGEPOINT CONTINUING CARE - NATIONAL HARBORSIDE HOSPITAL,RX240000124,,4601 MARTIN LUTHER KING JR. AVENUE SW,,Washington,DC,20032,20257457005711,Ward 8,ANC 8D,PAR 02520093,,,398851.56,128563.29,295152,,2025/05/03 12:55:29+00,,{343BC84E-783E-0C58-E063-782F520A417E},,,7522
-8571136.4669319,4706367.04224309,BRIDGEPOINT CONTINUING CARE HOSPITAL - CAPITOL HILL,RX240000125,,223 SEVENTH STREET NE,,Washington,DC,20002,20254657002161,Ward 6,ANC 6C,"0895    0843,0895    0076",,,400362.05,136135.72,315754,,2025/05/03 12:55:29+00,,{343BC84E-783F-0C58-E063-782F520A417E},,,7523
-8574069.41999998,4708416.25068204,CARY RX INCORPORATED,RX0000111,,1300 7TH STREET NW,STE 200,Washington,DC,20001,410-707-2868,Ward 2,ANC 2G,"0423    0800,0423    0001",,,398076.76,137726.26,243247,,2025/05/03 12:55:29+00,,{343BC84E-7840-0C58-E063-782F520A417E},,,7524
-8570446.13463271,4702308.5208949,CENTRAL PHARMACY LLC,RX1200018,,2202 MARTIN LUTHER KING JR AVE SE,,Washington,DC,20020,202-678-6010,Ward 8,ANC 8A,5791    0011,,,400900.39,132985.16,50580,,2025/05/03 12:55:29+00,,{343BC84E-7841-0C58-E063-782F520A417E},,,7525
-8573131.86183615,4711318.65185613,CHILDREN'S NATIONAL MEDICAL CENTER PHARMACY,RX8800078,,111 MICHIGAN AVE NW,,Washington,DC,20010,202-476-4244,Ward 5,ANC 5E,"3129    0801,3129    0002",,,398807.6,139978.02,243365,,2025/05/03 12:55:29+00,,{343BC84E-7842-0C58-E063-782F520A417E},,,7526
-8575270.36190594,4711759.49455012,COLUMBIA HEIGHTS PHARMACY,RX9300229,,3316 14TH ST NW,,Washington,DC,20010,202-548-0008,Ward 1,ANC 1A,2676    0795,,,397141.98,140320.43,300782,,2025/05/03 12:55:29+00,,{343BC84E-7843-0C58-E063-782F520A417E},,,7527
-8575110.90768963,4708519.16712549,"COMMUNITY, A WALGREENS PHARMACY #15298",RX1200008,,1325 14TH ST NW,,Washington,DC,20005,847-527-3993,Ward 2,ANC 2F,"0242    0839,0242    0005",,,397265.31,137806.36,225392,,2025/05/03 12:55:29+00,,{343BC84E-7844-0C58-E063-782F520A417E},,,7528
-8577314.35038922,4710765.90849288,CVS PHARMACY #1354,RX1200003,,2601 CONNECTICUT AVE NW,,Washington,DC,20008,401-765-1500,Ward 3,ANC 3C,"2204    0835,2204    0094",,,395549.49,139550.37,219106,,2025/05/03 12:55:29+00,,{343BC84E-7845-0C58-E063-782F520A417E},,,7529
-8575859.03634048,4708981.40363597,CVS PHARMACY #2733,RX0000294,,1601 17TH ST NW,,Washington,DC,20009,401-770-8836,Ward 2,ANC 2B,0179    0113,,,396682.56,138165.26,279240,,2025/05/03 12:55:29+00,,{343BC84E-7846-0C58-E063-782F520A417E},,,7530
-8572039.88619849,4704062.30550883,CVS/ PHARMACY #7102,RX1000371,,1100 NEW JERSEY AVENUE SE,,Washington,DC,20003,401-765-1500,Ward 8,ANC 8F,0742    0039,,,399657.93,134346.72,285822,,2025/05/03 12:55:29+00,,{343BC84E-7847-0C58-E063-782F520A417E},,,7531
-8574333.49337292,4704456.02092107,CVS/PHARMACY #10415,RX1700120,,804 MAINE AVE SW,,Washington,DC,20024,401-765-1500,Ward 6,ANC 6D,"0473    0930,0473    0088,0473    7004",,,397870.18,134652.64,314883,,2025/05/03 12:55:29+00,,{343BC84E-7848-0C58-E063-782F520A417E},,,7532
-8570580.43059989,4712196.38873512,CVS/PHARMACY #1333,RX1000377,,3601 12TH STREET NE,,Washington,DC,20017,401-765-1500,Ward 5,ANC 5B,"3927    0812,3927    0012",,,400794.92,140658.86,289172,,2025/05/03 12:55:29+00,,{343BC84E-7849-0C58-E063-782F520A417E},,,7533
-8575114.12450572,4707201.15856803,CVS/PHARMACY #1334,RX1000378,,717 14TH STREET NW,,Washington,DC,20005,401-765-1500,Ward 2,ANC 2C,0252    0078,,,397262.45,136783.55,279904,,2025/05/03 12:55:29+00,,{343BC84E-784A-0C58-E063-782F520A417E},,,7534
-8567028.7361994,4702962.22413403,CVS/PHARMACY #1335,RX2200169,,3250 PENNSYLVANIA AVE SE,,Washington,DC,20020,401-765-1500,Ward 7,ANC 7B,5539    0019,,,403564.43,133493.46,37625,,2025/05/03 12:55:29+00,,{343BC84E-784B-0C58-E063-782F520A417E},,,7535
-8578684.18551227,4708592.1576369,CVS/PHARMACY #1337,RX1000380,,1403 WISCONSIN AVE NW,,Washington,DC,20007,401-765-1500,Ward 2,ANC 2E,1256    0064,,,394481.25,137864.45,223778,,2025/05/03 12:55:29+00,,{343BC84E-784C-0C58-E063-782F520A417E},,,7536
-8571209.05274626,4705137.41823824,CVS/PHARMACY #1338,RX1000381,,661 PENNSYLVANIA AVE SE,,Washington,DC,20003,401-765-1500,Ward 6,ANC 6B,0874    0052,,,400305.52,135181.3,280104,,2025/05/03 12:55:29+00,,{343BC84E-784D-0C58-E063-782F520A417E},,,7537
-8575195.15976668,4707989.23911631,CVS/PHARMACY #1341,RX1000382,,1199 VERMONT AVE NW,,Washington,DC,20005,401-765-1500,Ward 2,ANC 2C,0215    0012,,,397199.52,137395.16,278914,,2025/05/03 12:55:29+00,,{343BC84E-784E-0C58-E063-782F520A417E},,,7538
-8582278.40698517,4713937.14506218,CVS/PHARMACY #1343,RX1000384,,4851 MASSACHUSETTS AVE NW,,Washington,DC,20016,401-765-1500,Ward 3,ANC 3E,"1499    0803,1499    0001",,,391685.21,142013.38,284996,,2025/05/03 12:55:29+00,,{343BC84E-784F-0C58-E063-782F520A417E},,,7539
-8580048.12178642,4716618.87346037,CVS/PHARMACY #1346,RX1000386,,5550 CONNECTICUT AVE NW,,Washington,DC,20015,401-765-1500,Ward 3,ANC 3/4G,1859    0093,,,393423.73,144091.34,263843,,2025/05/03 12:55:29+00,,{343BC84E-7850-0C58-E063-782F520A417E},,,7540
-8576553.08158129,4708709.03530392,CVS/PHARMACY #1347,RX1000387,,6 DUPONT CIRCLE NW,,Washington,DC,20036,401-765-1500,Ward 2,ANC 2B,0114    0025,,,396141.72,137954.16,241054,,2025/05/03 12:55:29+00,,{343BC84E-7851-0C58-E063-782F520A417E},,,7541
-8576214.52094618,4710773.52036012,CVS/PHARMACY #1351,RX1000370,,1755 COLUMBIA RD NW,,Washington,DC,20009,401-765-1500,Ward 1,ANC 1C,2580    0514,,,396406.23,139555.84,235930,,2025/05/03 12:55:29+00,,{343BC84E-7852-0C58-E063-782F520A417E},,,7542
-8577982.26111342,4712273.26044352,CVS/PHARMACY #1353,RX1000391,,3327 CONNECTICUT AVE NW,,Washington,DC,20008,401-765-1500,Ward 3,ANC 3C,"2218    0821,2218    0024",,,395029.94,140720.01,219245,,2025/05/03 12:55:29+00,,{343BC84E-7853-0C58-E063-782F520A417E},,,7543
-8576919.2546062,4706828.90684836,CVS/PHARMACY #1358,RX1000393,,2125 E STREET NW,,Washington,DC,20037,401-765-1500,Ward 2,ANC 2A,"0081    0844,0081    0101",,,395855.66,136495.26,300954,,2025/05/03 12:55:29+00,,{343BC84E-7854-0C58-E063-782F520A417E},,,7544
-8571023.75656262,4710367.31072776,CVS/PHARMACY #1363,RX1200010,,2350 WASHINGTON PLACE NE,SUITE 101-N,Washington,DC,20018,401-765-1500,Ward 5,ANC 5C,"3848    0825,3848    0059,3848    7001",,,400449.71,139239.89,306519,,2025/05/03 12:55:29+00,,{343BC84E-7855-0C58-E063-782F520A417E},,,7545
-8575855.45516949,4708765.56677901,CVS/PHARMACY #1365,RX1000397,,1637 P STREET NW,,Washington,DC,20036,401-765-1500,Ward 2,ANC 2B,0180    0088,,,396685.28,137997.78,225837,,2025/05/03 12:55:29+00,,{343BC84E-7856-0C58-E063-782F520A417E},,,7546
-8574857.40769237,4706737.48658975,CVS/PHARMACY #1842,RX1000412,,1275 PENNSYLVANIA AVE NW,,Washington,DC,20004,401-765-1500,Ward 2,ANC 2C,0291    0038,,,397462.38,136423.63,300418,,2025/05/03 12:55:29+00,,{343BC84E-7857-0C58-E063-782F520A417E},,,7547
-8579339.24356928,4715280.75467208,CVS/PHARMACY #2104,RX1000401,,5013 CONNECTICUT AVE NW,,Washington,DC,20008,401-765-1500,Ward 3,ANC 3F,1986    0008,,,393974.82,143053.3,262738,,2025/05/03 12:55:29+00,,{343BC84E-7858-0C58-E063-782F520A417E},,,7548
-8580514.55213864,4714425.64198978,CVS/PHARMACY #2174,RX1000402,,4555 WISCONSIN AVE NW,,Washington,DC,20016,401-765-1500,Ward 3,ANC 3E,1770    0023,,,393059.11,142390.91,300795,,2025/05/03 12:55:29+00,,{343BC84E-7859-0C58-E063-782F520A417E},,,7549
-8565755.39417346,4706361.55124327,CVS/PHARMACY #22,RX1000376,,320 40TH STREET NE,,Washington,DC,20019,401-765-1500,Ward 7,ANC 7F,5051N   0019,,,404555.57,136132.76,295139,,2025/05/03 12:55:29+00,,{343BC84E-785A-0C58-E063-782F520A417E},,,7550
-8582227.03944788,4709756.17632383,CVS/PHARMACY #2204,RX1000403,,4859 MACARTHUR BLVD NW,,Washington,DC,20007,401-765-1500,Ward 3,ANC 3D,"1374    0841,1374    0001",,,391721.82,138770.05,293246,,2025/05/03 12:55:29+00,,{343BC84E-785B-0C58-E063-782F520A417E},,,7551
-8573225.37579067,4718019.67613196,CVS/PHARMACY #2330,RX1000405,,110 CARROLL STREET NW,,Washington,DC,20012,401-765-1500,Ward 4,ANC 4B,3357    0060,,,398735.59,145174.77,280093,,2025/05/03 12:55:29+00,,{343BC84E-785C-0C58-E063-782F520A417E},,,7552
-8575257.93963156,4708695.07521306,CVS/PHARMACY #2817,RX1000409,,1418 P ST NW,,Washington,DC,20005,401-765-1500,Ward 2,ANC 2F,0210    0137,,,397150.8,137942.9,279148,,2025/05/03 12:55:29+00,,{343BC84E-785D-0C58-E063-782F520A417E},,,7553
-8576696.78578312,4707409.43579433,CVS/PHARMACY #2847,RX0800360,,2000 PENNSYLVANIA AVE NW,,Washington,DC,20006,401-765-1500,Ward 2,ANC 2A,0101    0058,,,396029.25,136945.71,243283,,2025/05/03 12:55:29+00,,{343BC84E-785E-0C58-E063-782F520A417E},,,7554
-8575121.57974226,4710063.08636491,CVS/PHARMACY #4546,RX0800361,,2129 14TH ST NW,,Washington,DC,20009,401-765-1500,Ward 1,ANC 1B,0235    0204,,,397257.41,139004.32,306455,,2025/05/03 12:55:29+00,,{343BC84E-785F-0C58-E063-782F520A417E},,,7555
-8579765.28116093,4712303.64110479,CVS/PHARMACY #5674,RX0000070,,3700 NEWARK ST NW,,Washington,DC,20016,401-765-1500,Ward 3,ANC 3A,1920    0061,,,393641.24,140744.57,311533,,2025/05/03 12:55:29+00,,{343BC84E-7860-0C58-E063-782F520A417E},,,7556
-8577104.92338327,4708082.03872884,CVS/PHARMACY #7074,RX1000414,,2240 M ST NW,,Washington,DC,20037,401-765-1500,Ward 2,ANC 2A,0051    0079,,,395711.5,137467.84,300189,,2025/05/03 12:55:29+00,,{343BC84E-7861-0C58-E063-782F520A417E},,,7557
-8572302.28165012,4708228.70353367,CVS/PHARMACY #7174,RX1100429,,1200 1ST ST NE,,Washington,DC,20002,401-765-1500,Ward 6,ANC 6E,"0672    0856,0672    0259",,,399453.62,137580.51,302635,,2025/05/03 12:55:29+00,,{343BC84E-7862-0C58-E063-782F520A417E},,,7558
-8570968.82027152,4700327.93843804,CEDAR HILL REGIONAL MEDICAL CENTER,RX250000127,,1200 PECAN ST SE,,Washington,DC,20032,202-715-5037,Ward 8,ANC 8C,"5868S   0859,5868S   0002",,,400492.99,131447.16,334872,,2025/05/03 12:55:29+00,,{343BC84E-7863-0C58-E063-782F520A417E},,,7559
-8568404.35438704,4710134.5989142,COMMUNITY OF HOPE PHARMACY,RX2200167,,2120 BLADENSBURG ROAD NE,,Washington,DC,20018,806-324-5400,Ward 5,ANC 5C,4258    0037,,,402490.29,139059.72,51359,,2025/05/03 12:55:29+00,,{343BC84E-7864-0C58-E063-782F520A417E},,,7560
-8566076.44786897,4710272.90118878,COSTCO PHARMACY #1120,RX1200022,,2441 MARKET STREET NE,,Washington,DC,20018,425-313-2860,Ward 5,ANC 5C,4327    0004,,,404303.72,139167.8,309925,,2025/05/03 12:55:29+00,,{343BC84E-7865-0C58-E063-782F520A417E},,,7561
-8574672.44544906,4707600.75481795,"DISTRICT OF COLUMBIA CVS PHARMACY, LLC",RX1800134,,1101 NEW YORK AVE NW,,Washington,DC,20005,401-765-1500,Ward 2,ANC 2C,"0317    0841,0317    0027",,,397606.72,137093.55,300316,,2025/05/03 12:55:29+00,,{343BC84E-7866-0C58-E063-782F520A417E},,,7562
-8572507.90191743,4704368.13451355,"DISTRICT OF COLUMBIA CVS PHARMACY, LLC DBA CVS PHARMACY #11231",RX2000159,,15 I ST. SE,,Washington,DC,20003,401-765-1500,Ward 6,ANC 8F,0697N   0075,,,399293.14,134584.16,313262,,2025/05/03 12:55:29+00,,{343BC84E-7867-0C58-E063-782F520A417E},,,7563
-8575272.77743953,4711550.63537857,"DISTRICT OF COLUMBIA CVS PHARMACY, LLC DBA CVS/ PHARMACY #17333",RX0000103,,3100 14TH STREET NW,,Washington,DC,20010,401-765-1500,Ward 1,ANC 1A,"2674    0721,2674    2001,2674    2002,2674    2003",,,397140.04,140158.41,306304,,2025/05/03 12:55:29+00,,{343BC84E-7868-0C58-E063-782F520A417E},,,7564
-8576817.28584276,4708782.96560789,DUPONT CIRCLE PHARMACY,RX1700117,,1506 21ST STREET NW,STE 100,Washington,DC,20036,202-818-8070,Ward 2,ANC 2B,0067    0063,,,395935.9,138011.63,276239,,2025/05/03 12:55:29+00,,{343BC84E-7869-0C58-E063-782F520A417E},,,7565
-8566156.31039921,4702351.58149138,DAILY CARE PHARMACY 2,RX240000123,,3845 PENNSYLVANIA AVENUE SE,,Washington,DC,20020,202-885-9474,Ward 7,ANC 7B,5673    0803,,,404244.8,133019.68,278430,,2025/05/03 12:55:29+00,,{343BC84E-786A-0C58-E063-782F520A417E},,,7566
-8574125.78983171,4709820.13445256,DISTRICT OF COLUMBIA CVS PHARMACY DBA CVS/PHARMACY #1355,RX2100166,,"2009- EIGHTH STREET, NW",,Washington,DC,20001,401-765-1500,Ward 1,ANC 1B,2877    1038,,,398033.11,138815.59,242769,,2025/05/03 12:55:29+00,,{343BC84E-786B-0C58-E063-782F520A417E},,,7567
-8572555.7152062,4697635.82263043,EXCEL PHARMACY,RX0000097,,3923 SOUTH CAPITOL STREET SW,UNIT # A,Washington,DC,20032,202-652-1776,Ward 8,ANC 8D,6150    0808,,,399255.38,129356.22,276603,,2025/05/03 12:55:29+00,,{343BC84E-786C-0C58-E063-782F520A417E},,,7568
-8571241.85059259,4699564.70027396,EMERGING LIFE LLC DBA/ HEALING TOUCH PHARMACY #4,RX2200170,,2916 MARTIN LUTHER KING JR. AVENUE SE,,Washington,DC,20032,202-758-0955,Ward 8,ANC 8C,5951    0031,,,400280.11,130854.4,43369,,2025/05/03 12:55:29+00,,{343BC84E-786D-0C58-E063-782F520A417E},,,7569
-8567152.97245985,4711615.92565892,"FORT LINCOLN PHARMACY & MEDICAL EQUIPMENT, LLC",RX1200023,,3180 BLADENSBURG RD NE,,Washington,DC,20018,202-269-0000,Ward 5,ANC 5C,4335    0070,,,403464.64,140209.3,309469,,2025/05/03 12:55:29+00,,{343BC84E-786E-0C58-E063-782F520A417E},,,7570
-8577246.44279781,4707545.75789981,GEORGE WASHINGTON UNIVERSITY HOSPITAL PHARMACY,RX0600343,,900 23RD ST NW,RM B1018,Washington,DC,20037,202-715-5037,Ward 2,ANC 2A,0040    0036,,,395601,137051.73,242349,,2025/05/03 12:55:29+00,,{343BC84E-786F-0C58-E063-782F520A417E},,,7571
-8574075.0176389,4708635.43098557,GIANT #2376,RX0000057,,1400 7TH STREET NW,,Washington,DC,20001,717-240-7541,Ward 2,ANC 2G,"0398    0836,0398    0032,0398    7002",,,398072.44,137896.34,304153,,2025/05/03 12:55:29+00,,{343BC84E-7870-0C58-E063-782F520A417E},,,7572
-8570755.22985734,4710107.33122633,GIANT PHARMACY #375,RX0200327,,1050 BRENTWOOD RD NE,,Washington,DC,20018,717-240-7541,Ward 5,ANC 5C,3854    0802,,,400658.91,139038.2,299835,,2025/05/03 12:55:29+00,,{343BC84E-7871-0C58-E063-782F520A417E},,,7573
-8575123.86232964,4711803.76292678,GIANT PHARMACY #378,RX0500335,,1345 PARK RD NW,,Washington,DC,20010,717-240-7541,Ward 1,ANC 1A,2837    0079,,,397256.1,140354.73,297595,,2025/05/03 12:55:29+00,,{343BC84E-7872-0C58-E063-782F520A417E},,,7574
-8569488.46964745,4699481.50234504,GIANT PHARMACY #384,RX0700353,,1535 ALABAMA AVE SE,,Washington,DC,20032,717-240-7541,Ward 8,ANC 8E,"5912    0818,5912    0089",,,401647.46,130789.95,306557,,2025/05/03 12:55:29+00,,{343BC84E-7873-0C58-E063-782F520A417E},,,7575
-8571687.28470246,4705941.49385392,GRUBB'S CARE PHARMACY,RX8800077,,326 EAST CAPITOL ST NE,,Washington,DC,20003,202-503-3262,Ward 6,ANC 6C,0786    0031,,,399932.79,135805.42,37469,,2025/05/03 12:55:29+00,,{343BC84E-7874-0C58-E063-782F520A417E},,,7576
-8570271.59823662,4702720.92513467,GRUBB'S PHARMACY SE INC,RX1200011,,1800 MLK JR AVE SE,,Washington,DC,20020,202-503-3610,Ward 8,ANC 8A,5601    0056,,,401036.42,133305.38,56153,,2025/05/03 12:55:29+00,,{343BC84E-7875-0C58-E063-782F520A417E},,,7577
-8572225.28783074,4708207.30395473,HARRIS TEETER #352,RX0000061,,1201 1ST ST NE,,Washington,DC,20002,513-782-1090,Ward 6,ANC 6E,"0711    0816,0711    0160,0711    7002",,,399513.61,137563.9,303728,,2025/05/03 12:55:29+00,,{343BC84E-7876-0C58-E063-782F520A417E},,,7578
-8575882.5848849,4710501.24409808,HARRIS TEETER PHARMACY #231,RX0000063,,1631 KALORAMA RD NW STE 100,STE 100,Washington,DC,20009,513-782-1090,Ward 1,ANC 1C,2572    0036,,,396664.71,139344.49,284059,,2025/05/03 12:55:29+00,,{343BC84E-7877-0C58-E063-782F520A417E},,,7579
-8571611.5391241,4703957.24212076,HARRIS TEETER PHARMACY #383,RX0000087,,401 M STREET SE,,Washington,DC,20003,513-762-1090,Ward 8,ANC 8F,"0771    0811,0771    0012",,,399991.82,134265.15,309432,,2025/05/03 12:55:29+00,,{343BC84E-7878-0C58-E063-782F520A417E},,,7580
-8570479.51444161,4697831.82983748,HEALING TOUCH PHARMACY,RX1800133,,4139 WHEELER ROAD SE,SUITE A,Washington,DC,20032,888-889-9961,Ward 8,ANC 8E,5925    0065,,,400874.75,129508.49,26157,,2025/05/03 12:55:29+00,,{343BC84E-7879-0C58-E063-782F520A417E},,,7581
-8569490.29881957,4713277.64794828,HSC PEDIATRIC CENTER PHARMACY,RX8800066,,1731 BUNKER HILL RD NE,,Washington,DC,20017,202-635-6164,Ward 5,ANC 5B,4163    0004,,,401643.81,141497.68,286452,,2025/05/03 12:55:29+00,,{343BC84E-787A-0C58-E063-782F520A417E},,,7582
-8568404.00730879,4699856.44697793,HEALING TOUCH PHARMACY #3,RX2100163,,"3415 23RD STREET, SE",,Washington,DC,20020,202-506-1948,Ward 8,ANC 8E,"5897    0805,5897    0035",,,402493.07,131081.37,278386,,2025/05/03 12:55:29+00,,{343BC84E-787B-0C58-E063-782F520A417E},,,7583
-8573929.88998348,4709905.42696478,HOWARD UNIVERSITY HOSPITAL CORP.,RX240000120,,2041 GEORGIA AVE NW,,Washington,DC,20060,202-865-4479,Ward 1,ANC 1B,3075    0807,,,398185.74,138881.73,279523,,2025/05/03 12:55:29+00,,{343BC84E-787C-0C58-E063-782F520A417E},,,7584
-8572040.08767842,4707251.05824609,KAISER PERMANENTE CAPITOL HILL INFUSION PHARMACY,RX1000426,,700 2ND ST NE STE 603,STE 603,Washington,DC,20002,443-280-7365,Ward 6,ANC 6C,"0720    0826,0720    0180",,,399657.88,136821.81,307352,,2025/05/03 12:55:29+00,,{343BC84E-787D-0C58-E063-782F520A417E},,,7585
-8572040.08767842,4707251.05824609,KAISER PERMANENTE CAPITOL HILL PHARMACY,RX1000427,,700 2ND ST NE,STE L18,Washington,DC,20002,443-280-7365,Ward 6,ANC 6C,"0720    0826,0720    0180",,,399657.88,136821.81,307352,,2025/05/03 12:55:29+00,,{343BC84E-787E-0C58-E063-782F520A417E},,,7586
-8577206.19111935,4708141.77631177,KAISER PERMANENTE NORTHWEST DC PHARMACY,RX1200017,,2301 M STREET NW,STE 200,Washington,DC,20037,443-280-7365,Ward 2,ANC 2A,"0036    0846,0036    0046,0036    7000",,,395632.62,137514.24,242336,,2025/05/03 12:55:29+00,,{343BC84E-787F-0C58-E063-782F520A417E},,,7587
-8576480.61901632,4710432.72399488,KALORAMA CARE PHARMACY,RX1700118,,1841 COLUMBIA RD NW,,Washington,DC,20009,202-795-9711,Ward 1,ANC 1C,"2549    0877,2549    0028",,,396198.82,139291.54,235380,,2025/05/03 12:55:29+00,,{343BC84E-7880-0C58-E063-782F520A417E},,,7588
-8571218.80596864,4699594.05619264,"KINGDOM PHARMACY, LLC",RX250000128,,2910 MARTIN LUTHER KING JR. AVENUE SE,,Washington,DC,20032,240-246-6671,Ward 8,ANC 8C,"5951    0804,5951    0011",,,400298.08,130877.2,43428,,2025/05/03 12:55:29+00,,{343BC84E-7881-0C58-E063-782F520A417E},,,7589
-8574396.27888043,4712974.42509764,"MARY'S CENTER FOR MATERNAL AND CHILD CARE, INC DBA",RX0000112,,3912 GEORGIA AVENUE NW,,Washington,DC,20011,806-324-5400,Ward 4,ANC 4C,"2906    0854,2906    0091,2906    7000",,,397823.06,141262.62,224825,,2025/05/03 12:55:29+00,,{343BC84E-7882-0C58-E063-782F520A417E},,,7590
-8573086.43607226,4711728.37760107,MEDSTAR NATIONAL REHABILITATION HOSPITAL,RX1200012,,102 IRVING STREET NW,,Washington,DC,20010,202-877-1731,Ward 5,ANC 5E,"3129    0804,3129    0002",,,398843.03,140295.86,243364,,2025/05/03 12:55:29+00,,{343BC84E-7883-0C58-E063-782F520A417E},,,7591
-8573203.34385422,4711560.12086584,MEDSTAR PHARMACY #5,RX1200013,,106 IRVING ST NW,STE 1200,Washington,DC,20010,410-540-4492,Ward 5,ANC 5E,"3129    0804,3129    0002",,,398751.95,140165.35,301960,,2025/05/03 12:55:29+00,,{343BC84E-7884-0C58-E063-782F520A417E},,,7592
-8579983.85201545,4709077.23730604,MEDSTAR PHARMACY #10,RX1200014,,3800 RESERVOIR RD NW,,Washington,DC,20007,410-540-4492,Ward 2,ANC 2E,"1321    0824,1321    0001",,,393468.94,138241.62,291547,,2025/05/03 12:55:29+00,,{343BC84E-7885-0C58-E063-782F520A417E},,,7593
-8573420.07361864,4711585.24704924,MEDSTAR WASHINGTON HOSPITAL CENTER,RX1200006,,110 IRVING ST NW,110 IRVING ST NW,Washington,DC,20010,202-877-6747,Ward 5,ANC 5E,"3129    0804,3129    0002",,,398583.14,140184.87,228314,,2025/05/03 12:55:29+00,,{343BC84E-7886-0C58-E063-782F520A417E},,,7594
-8577006.22629108,4707591.28564632,MFA INVESTIGATIONAL DRUG SERVICE PHARMACY,RX1900141,,2150 PENNSYLVANIA AVE NW,STE 6A-404,Washington,DC,20037,202-741-2218,Ward 2,ANC 2A,0075    0048,,,395788.2,137086.96,242494,,2025/05/03 12:55:29+00,,{343BC84E-7887-0C58-E063-782F520A417E},,,7595
-8575822.94276164,4711770.7134488,MT. PLEASANT CARE PHARMACY,RX2000148,,"3169 MT. PLEASANT STREET, NW",,Washington,DC,20010,202-387-3100,Ward 1,ANC 1D,2595    1037,,,396711.58,140329.3,236420,,2025/05/03 12:55:29+00,,{343BC84E-7888-0C58-E063-782F520A417E},,,7596
-8574557.34487293,4717312.88894629,NAI SATURN EASTERN LLC DBA SAFEWAY PHARMACY #1276,RX0000072,,6500 PINEY BRANCH RD NW,,Washington,DC,20012,208-395-4303,Ward 4,ANC 4B,2974    0020,,,397698.6,144627.04,285341,,2025/05/03 12:55:29+00,,{343BC84E-7889-0C58-E063-782F520A417E},,,7597
-8567890.87253463,4701499.2157377,NAI SATURN EASTERN LLC DBA SAFEWAY PHARMACY #1445,RX0000074,,2845 ALABAMA AVE SE,,Washington,DC,20020,208-395-4303,Ward 7,ANC 7B,5642    0001,,,402892.75,132357.23,278282,,2025/05/03 12:55:29+00,,{343BC84E-788A-0C58-E063-782F520A417E},,,7598
-8574368.06356447,4712859.80583883,NAI SATURN EASTERN LLC DBA SAFEWAY PHARMACY #2808,RX0000076,,3830 GEORGIA AVE NW,,Washington,DC,20011,208-395-4303,Ward 4,ANC 4C,"2905    0814,2905    0040,2905    7000",,,397845.01,141173.71,225076,,2025/05/03 12:55:29+00,,{343BC84E-788B-0C58-E063-782F520A417E},,,7599
-8573511.23451401,4704157.03228759,NAI SATURN EASTERN LLC DBA SAFEWAY PHARMACY #2892,RX0000077,,1100 4TH ST SW,STE 150,Washington,DC,20024,208-395-4303,Ward 6,ANC 6D,"0542    0872,0542    0089",,,398511.05,134420.39,307170,,2025/05/03 12:55:29+00,,{343BC84E-788C-0C58-E063-782F520A417E},,,7600
-8579089.92615216,4709673.31429855,NAI SATURN EASTERN LLC DBA SAFEWAY PHARMACY #2912,RX0000078,,1855 WISCONSIN AVE NW,,Washington,DC,20007,208-395-4303,Ward 2,ANC 2E,"1299    1040,1299    0325,1299    7000",,,394165.74,138703.58,224665,,2025/05/03 12:55:29+00,,{343BC84E-788D-0C58-E063-782F520A417E},,,7601
-8576167.17376576,4710824.74021472,NAI SATURN EASTERN LLC DBA SAFEWAY PHARMACY #4202,RX0000079,,1747 COLUMBIA RD NW,,Washington,DC,20009,208-395-4303,Ward 1,ANC 1C,2580    0512,,,396443.13,139595.56,284083,,2025/05/03 12:55:29+00,,{343BC84E-788E-0C58-E063-782F520A417E},,,7602
-8569349.05695208,4707439.79604094,NAI SATURN EASTERN LLC DBA SAFEWAY PHARMACY #4270,RX0000081,,1601 MARYLAND AVE NE,,Washington,DC,20002,208-395-4303,Ward 5,ANC 5D,4493    0001,,,401754.81,136968.47,297814,,2025/05/03 12:55:29+00,,{343BC84E-788F-0C58-E063-782F520A417E},,,7603
-8579939.69816487,4716602.19713303,NAI SATURN EASTERN LLC DBA SAFEWAY PHARMACY #4832,RX0000082,,5545 CONNECTICUT AVE NW,,Washington,DC,20015,208-395-4303,Ward 3,ANC 3/4G,1867    0092,,,393508.13,144078.34,263999,,2025/05/03 12:55:29+00,,{343BC84E-7890-0C58-E063-782F520A417E},,,7604
-8572642.49928098,4708810.03106145,NORTH CAPITOL PHARMACY,RX0000110,,1516 NORTH CAPITOL ST NW,,Washington,DC,20002,571-309-2816,Ward 5,ANC 5E,"0615    0833,0615    0085",,,399188.58,138031.63,242908,,2025/05/03 12:55:29+00,,{343BC84E-7891-0C58-E063-782F520A417E},,,7605
-8569827.56291018,4698250.83187198,NOT- FOR- PROFIT HOSPITAL CORP.,RX1000424,,1310 SOUTHERN AVE SE,1310 SOUTHERN AVE SE,Washington,DC,20032,202-574-7248,Ward 8,ANC 8E,"5919    0802,5919    0004,RES 05010000",,,401383.19,129834.03,277936,,2025/05/03 12:55:29+00,,{343BC84E-7892-0C58-E063-782F520A417E},,,7606
-8578210.7151626,4708712.7922479,"PHARM-PRO, INC. T/A MORGAN PHARMACY",RX2200168,,3001 P ST NW,,Washington,DC,20007,202-337-4100,Ward 2,ANC 2E,1269    0290,,,394850.21,137957.81,223835,,2025/05/03 12:55:29+00,,{343BC84E-7893-0C58-E063-782F520A417E},,,7607
-8580279.78690084,4713640.40244642,PSYCHIATRIC INSTITUTE OF WASHINGTON,RX240000122,,4228 WISCONSIN AVENUE NW,4TH FLOOR,Washington,DC,20016,202-885-5657,Ward 3,ANC 3A,1786    0008,,,393241.4,141781.75,222976,,2025/05/03 12:55:29+00,,{343BC84E-7894-0C58-E063-782F520A417E},,,7608
-8571494.10356212,4715053.5574043,RAMDASS PHARMACY,RX1700119,,475 INGRAHAM ST NE,,Washington,DC,20011,240-464-8218,Ward 5,ANC 5A,3765    0005,,,400083.27,142874.82,314562,,2025/05/03 12:55:29+00,,{343BC84E-7895-0C58-E063-782F520A417E},,,7609
-8565777.32352971,4706789.33040581,RELIANCE PHARMACY,RX0000083,,4047 MINNESOTA AVE NE,,Washington,DC,20019,202-398-2800,Ward 7,ANC 7F,5080    0049,,,404538.29,136464.76,288078,,2025/05/03 12:55:29+00,,{343BC84E-7896-0C58-E063-782F520A417E},,,7610
-8580936.13571715,4715414.28199539,RODMAN'S DISCOUNT DRUGS,RX8800103,,5100 WISCONSIN AVE NW,,Washington,DC,20016,301-942-9210,Ward 3,ANC 3E,1656    0009,,,392731.53,143157.89,265883,,2025/05/03 12:55:29+00,,{343BC84E-7897-0C58-E063-782F520A417E},,,7611
-8561722.12194445,4706501.52476967,SEAT PLEASANT DRUGS,RX1200016,,354 EASTERN AVE NE,,Washington,DC,20019,202-396-3400,Ward 7,ANC 7C,"5268    0807,5268    0030",,,407698.63,136243.83,33319,,2025/05/03 12:55:29+00,,{343BC84E-7898-0C58-E063-782F520A417E},,,7612
-8583715.79889627,4712532.16201466,SIBLEY MEMORIAL HOSPITAL PHARMACY,RX8800082,,5255 LOUGHBORO RD NW,,Washington,DC,20016,202-537-4171,Ward 3,ANC 3D,"1448N   0806,1448N   0026",,,390564.57,140924.9,295156,,2025/05/03 12:55:29+00,,{343BC84E-7899-0C58-E063-782F520A417E},,,7613
-8570310.31368755,4699961.26964485,ST ELIZABETH HOSPITAL PHARMACY,RX1000422,,1100 ALABAMA AVE SE,ROOM 113,Washington,DC,20032,202-299-5160,Ward 8,ANC 8C,"5868S   0805,5868S   0002",,,401006.51,131162.45,307946,,2025/05/03 12:55:29+00,,{343BC84E-789A-0C58-E063-782F520A417E},,,7614
-8570468.52339681,4702485.36908639,STATE PHARMACY INC,RX0300330,,2041 MARTIN LUTHER KING JR AVE SE,SUITE 100,Washington,DC,20020,301-437-6905,Ward 8,ANC 8A,5772    1019,,,400882.92,133122.47,278056,,2025/05/03 12:55:29+00,,{343BC84E-789B-0C58-E063-782F520A417E},,,7615
-8570702.41847081,4707355.78659394,SUPER PHARMACY LLC,RX9500254,,1019 H ST NE,,Washington,DC,20002,202-388-0050,Ward 6,ANC 6A,0959    0020,,,400700.24,136903.11,75505,,2025/05/03 12:55:29+00,,{343BC84E-789C-0C58-E063-782F520A417E},,,7616
-8572540.03302723,4707503.29720716,SMOKE TEST SPECIALTY RX,RX250000131,,899 NORTH CAPITAL STREET NE,,Washington,DC,20002,222-222-2222,Ward 6,ANC 6E,"0675    0855,0675    0298",,,399268.32,137017.59,308942,,2025/05/03 12:55:29+00,,{343BC84E-789D-0C58-E063-782F520A417E},,,7617
-8570409.74317148,4710241.14915092,TRIPLE ALLIANCE PHARMACY,RX1300002,,1219 BRENTWOOD RD NE,,Washington,DC,20018,202-704-3350,Ward 5,ANC 5C,3942    0040,,,400928.04,139142.05,307472,,2025/05/03 12:55:29+00,,{343BC84E-789E-0C58-E063-782F520A417E},,,7618
-8576696.81306022,4707772.39025372,TSCHIFFELY PHARMACY,RX0900364,,2021 K ST NW,,Washington,DC,20006,703-339-1992,Ward 2,ANC 2A,0076    0083,,,396029.37,137227.38,242500,,2025/05/03 12:55:29+00,,{343BC84E-789F-0C58-E063-782F520A417E},,,7619
-8575277.95719299,4711388.82988738,UNITY HEALTH CARE INC DBA UNITY HEALTH PHARMACY,RX0000114,,3020 14 STREET NW,,Washington,DC,20009,806-324-5400,Ward 1,ANC 1A,2672    0719,,,397135.96,140032.89,242939,,2025/05/03 12:55:29+00,,{343BC84E-78A0-0C58-E063-782F520A417E},,,7620
-8568971.55734122,4704988.84383943,UNITY HEALTH CARE PHARMACY CENTRAL DETENTION,RX0600346,,1901 D ST SE,,Washington,DC,20003,202-425-5043,Ward 7,ANC 7F,"1112E   0826,1112E   0007,RES 00130000",,,402049.46,135066.23,295133,,2025/05/03 12:55:29+00,,{343BC84E-78A1-0C58-E063-782F520A417E},,,7621
-8565752.60686206,4707418.78374164,"UNITY HEALTH CARE, INC DBA UNITY HEALTH PHARMACY",RX0000113,,765 KENILWORTH TERRACE NE,,Washington,DC,20019,806-324-5400,Ward 7,ANC 7D,5055    0027,,,404557.27,136953.28,310407,,2025/05/03 12:55:29+00,,{343BC84E-78A2-0C58-E063-782F520A417E},,,7622
-8564753.89644461,4706125.07950713,"UNITY HEALTH CARE, INC. DBA UNITY HEALTH PHARMACY",RX1900139,,"4414 BENNING ROAD, NE",SUITE 100,Washington,DC,20019,806-324-5400,Ward 7,ANC 7F,5139    0026,,,405336.17,135949.71,288206,,2025/05/03 12:55:29+00,,{343BC84E-78A3-0C58-E063-782F520A417E},,,7623
-8575277.95719299,4711388.82988738,"UNITY HEALTH CARE, INC. DBA UNITY HEALTH PHARMACY",RX230000118,,"3020 14TH STREET, NW",,Washington,DC,20009,806-324-5400,Ward 1,ANC 1A,2672    0719,,,397135.96,140032.89,242939,,2025/05/03 12:55:29+00,,{343BC84E-78A4-0C58-E063-782F520A417E},,,7624
-8578596.60920793,4713602.4713938,VAN NESS PHARMACY DBA: PILL PLUS PHARMACY,RX2300174,,4215 CONNECTICUT AVENUE NW,SUITE 1,Washington,DC,20008,240-423-6667,Ward 3,ANC 3F,"2051    0808,2051    0002",,,394552.16,141751.32,221313,,2025/05/03 12:55:29+00,,{343BC84E-78A5-0C58-E063-782F520A417E},,,7625
-8564556.55356055,4705836.37295762,"VELIMA PHARMACY, INC.",RX2000154,,"4514 BENNING ROAD, SE","4514 BENNING ROAD, SE",Washington,DC,20019,202-800-6500,Ward 7,ANC 7E,5346    0011,,,405490.12,135725.73,278507,,2025/05/03 12:55:29+00,,{343BC84E-78A6-0C58-E063-782F520A417E},,,7626
-8574641.67279349,4716222.66777521,WAL-MART 10-5968,RX0000054,,5929 GEORGIA AVE NW,,Washington,DC,20011,870-350-2408,Ward 4,ANC 4B,2986    0039,,,397632.7,143781.75,254296,,2025/05/03 12:55:29+00,,{343BC84E-78A7-0C58-E063-782F520A417E},,,7627
-8574946.67195262,4709758.46948015,WALGREEN CO. DBA WALGREENS #17712,RX2000152,,1306 U ST. NW,,Washington,DC,20009,847-527-3993,Ward 1,ANC 1B,0237    0205,,,397393.59,138767.93,302367,,2025/05/03 12:55:29+00,,{343BC84E-78A8-0C58-E063-782F520A417E},,,7628
-8576712.07119876,4709486.84450828,WALGREEN CO. DBA WALGREENS #19076,RX2000153,,1815 CONNECTICUT AVE NW,,Washington,DC,20009,847-527-3993,Ward 1,ANC 1C,"2535    0836,2535    0042",,,396018.15,138557.75,302021,,2025/05/03 12:55:29+00,,{343BC84E-78A9-0C58-E063-782F520A417E},,,7629
-8577000.23195839,4708146.95268423,WALGREENS #10071,RX0800355,,1217 22ND ST NW,,Washington,DC,20037,847-527-3993,Ward 2,ANC 2A,"0070    0884,0070    0190,0070    7000",,,395793.1,137518.17,294975,,2025/05/03 12:55:29+00,,{343BC84E-78AA-0C58-E063-782F520A417E},,,7630
-8574009.97751798,4707357.78172634,WALGREENS #15360,RX1300001,,801 7TH ST NW,,Washington,DC,20001,847-527-3993,Ward 2,ANC 2C,0453    0058,,,398122.88,136904.85,238697,,2025/05/03 12:55:29+00,,{343BC84E-78AB-0C58-E063-782F520A417E},,,7631
-8573131.86183615,4711318.65185613,WALGREENS #15949,RX0000060,,111 MICHIGAN AVE NW,SUITE 1107,Washington,DC,20010,847-527-3993,Ward 5,ANC 5E,"3129    0801,3129    0002",,,398807.6,139978.02,243365,,2025/05/03 12:55:29+00,,{343BC84E-78AC-0C58-E063-782F520A417E},,,7632
-8574677.29852584,4707011.68222534,WALGREENS #15953,RX0000092,,"1155 F STREET NW,  SUITE 975",,Washington,DC,20004,847-527-3993,Ward 2,ANC 2C,0320    0028,,,397602.8,136636.39,306768,,2025/05/03 12:55:29+00,,{343BC84E-78AD-0C58-E063-782F520A417E},,,7633
-8573929.88998348,4709905.42696478,WALGREENS #16049,RX0000071,,2041 GEORGIA AVE NW,#1-J10,Washington,DC,20060,847-527-3993,Ward 1,ANC 1B,3075    0807,,,398185.74,138881.73,279523,,2025/05/03 12:55:29+00,,{343BC84E-78AE-0C58-E063-782F520A417E},,,7634
-8581076.16028285,4712172.52528303,WALGREENS CO. DBA WALGREENS#19132,RX1900137,,3301 NEW MEXICO AVE NW STE 127,,Washington,DC,20016,847-527-3993,Ward 3,ANC 3B,1601    0001,,,392620.16,140643.75,223997,,2025/05/03 12:55:29+00,,{343BC84E-78AF-0C58-E063-782F520A417E},,,7635
-8571831.4982011,4715671.75470251,WALMART PHARMACY 10-3035,RX0000095,,310 RIGGS RD N.E.,,Washington,DC,20011,870-350-2408,Ward 4,ANC 4B,"3748    0808,3748    0052",,,399820.57,143354.21,311574,,2025/05/03 12:55:29+00,,{343BC84E-78B0-0C58-E063-782F520A417E},,,7636
-8575122.28025948,4708857.10366105,WHITMAN-WALKER CLINIC PHARMACY,RX0000093,,1525 14TH STREET NW,,Washington,DC,20005,806-324-5400,Ward 2,ANC 2F,0241    0129,,,397256.54,138068.59,300332,,2025/05/03 12:55:29+00,,{343BC84E-78B1-0C58-E063-782F520A417E},,,7637
-8570500.16105887,4699454.09617709,"WHITMAN-WALKER CLINIC, INC. DBA WHITMAN-WALKER PHARMACY",RX230000119,,1201 SYCAMORE DRIVE SE,,Washington,DC,20032,866-724-1805,Ward 8,ANC 8C,5868S   0965,,,400858.51,130768.54,334942,,2025/05/03 12:55:29+00,,{343BC84E-78B2-0C58-E063-782F520A417E},,,7638
