X,Y,NAME,ADDRESS,USE_TYPE,WARD_ID,SCHOOL_SITE,POOL,POOL_NAME,WEB_URL,PHONE,STATUS,FITNESS_CENTER,XCOORD,YCOORD,MAR_ID,GIS_ID,OBJECTID,GLOBALID,CREATOR,CREATED,EDITOR,EDITED
-8567442.12439105,4701468.57544793,Hillcrest Recreation Center,3100 DENVER STREET SE,RECREATION CENTER,7,no,none,none,https://dpr.dc.gov/page/hillcrest-recreation-center,(202) 645-9200,Open,Fitness Room,403242.6395625,132333.5734375,296174,RecPt_1,1601,{7D3AC4C3-E78F-4901-B3D7-8933587FE027},JLAY,2022/08/11 23:34:41+00,JLAY,2022/08/11 23:34:41+00
-8563944.89515711,4706425.53569214,Kelly Miller Pool,4900 BROOKS STREET NE,POOL,7,no,outdoor,Kelly Miller Pool,https://dpr.dc.gov/page/kelly-miller-pool,(202) 724-5056,Open,No,405966.4706875,136183.3578125,295154,RecPt_2,1602,{1582DF65-EE95-488B-9736-21EC68B021B1},JLAY,2022/08/11 23:34:41+00,JLAY,2022/08/11 23:34:41+00
-8579037.47190783,4708803.6923425,Volta Park Recreation Center,1555 34TH STREET NW,RECREATION CENTER,2,no,outdoor,Volta Park Pool,https://dpr.dc.gov/page/volta-park-recreation-center,(202) 645-5668,Open,No,394206.111,138028.79,279236,RecPt_3,1603,{529A6530-EE2F-466A-BF4B-9FB96244814D},JLAY,2022/08/11 23:34:41+00,JLAY,2022/08/11 23:34:41+00
-8575788.97124542,4708792.67457973,Stead Recreation Center,1625 P STREET NW,RECREATION CENTER,2,no,none,none,https://dpr.dc.gov/page/stead-recreation-center,(202) 673-4465,Open,No,396737.088,138018.793,295822,RecPt_4,1604,{9B4644D0-8C95-49B0-AD0F-AFB8463952D2},JLAY,2022/08/11 23:34:41+00,JLAY,2024/08/27 17:28:57+00
-8577587.26971952,4708404.79774717,Francis Pool,2435 N STREET NW,POOL,2,no,outdoor,Francis Pool,https://dpr.dc.gov/page/francis-pool,(202) 340-6795,Open,No,395335.814,137718.513,308120,RecPt_5,1605,{7CB4628A-C142-4958-AEDD-9FD52228FAFE},JLAY,2022/08/11 23:34:41+00,JLAY,2024/03/08 00:56:57+00
-8574579.50041496,4703728.21425679,East Potomac Pool,972 OHIO DRIVE SW,POOL,6,no,outdoor,East Potomac Pool,https://dpr.dc.gov/page/east-potomac-pool,(202) 727-6523,Closed,No,397678.2634375,134087.6891875,301729,RecPt_6,1606,{03DFF751-BE92-417F-81D9-70159DBCA45E},JLAY,2022/08/11 23:34:41+00,JLAY,2022/08/11 23:34:41+00
-8579040.89633306,4709606.44949132,Jelleff Community Center,3265 S STREET NW,RECREATION CENTER,2,,outdoor,Jelleff Pool,https://dpr.dc.gov/page/jelleff-community-center,(202) 462-1317,Open,No,394203.8989375,138651.672375,273636,RecPt_7,1607,{1BB053C6-DD13-4CCD-91F4-88B422EC453F},JLAY,2022/08/11 23:34:41+00,JLAY,2022/08/11 23:34:41+00
-8579040.146766,4709606.522217,Jelleff Pool,3265 S STREET NW,POOL,2,,outdoor,Jelleff Pool,https://dpr.dc.gov/page/jelleff-pool,(202) 462-1317,Open,No,394204.4825,138651.728125,273636,RecPt_8,1608,{99BD1B7D-E41B-4FDF-9197-4B7E9B7E2053},JLAY,2022/08/11 23:34:41+00,JLAY,2022/08/11 23:34:41+00
-8579037.47190783,4708803.6923425,Volta Park Pool,1555 34TH STREET NW,POOL,2,no,outdoor,Volta Park Pool,https://dpr.dc.gov/page/volta-park-pool,(202) 645-5669,Open,No,394206.111,138028.79,279236,RecPt_9,1609,{5E3D8357-B965-484F-9A02-CA0F5A50DACA},JLAY,2022/08/11 23:34:41+00,JLAY,2022/08/11 23:34:41+00
-8577166.29205472,4709442.33539897,Mitchell Park Recreation Center,1801 23RD STREET NW,RECREATION CENTER,2,no,none,none,https://dpr.dc.gov/page/mitchell-park-recreation-center-0,(202) 674-6641,Open,No,395663.99,138523.68,279395,RecPt_10,1610,{8566BC36-3BE0-4A35-B67C-C981AA218F62},JLAY,2022/08/11 23:34:41+00,JLAY,2024/08/27 17:28:57+00
-8575406.51837918,4710877.96912655,Columbia Heights CC Spray Park,1480 GIRARD STREET NW,SPRAY PARK,1,no,spray park,Columbia Heights Spray Park,https://dpr.dc.gov/page/spray-parks,(202) 671-0373,Open,No,397035.6720625,139636.6109375,310264,RecPt_11,1611,{8868F51F-4D98-4EAE-A60C-670AC4B4009E},JLAY,2022/08/11 23:34:41+00,JLAY,2022/08/11 23:34:41+00
-8569126.29426153,4700581.58884361,Douglass Community Center,1922 FREDERICK DOUGLASS COURT SE,RECREATION CENTER,8,no,outdoor,Douglass Pool,https://dpr.dc.gov/page/douglass-community-center-00,(202) 645-3980,Open,No,401929.68925,131644.3605,314542,RecPt_12,1612,{074B3834-9134-4D99-BCF6-0323F13BCD13},JLAY,2022/08/11 23:34:41+00,JLAY,2022/08/11 23:34:41+00
-8571250.60977716,4697670.61972964,Ferebee-Hope Recreation Center,700 YUMA STREET SE,RECREATION CENTER,8,Ferebee-Hope Elementary School,indoor,Ferebee Hope Pool,https://dpr.dc.gov/page/ferebee-hope-recreation-center,(202)-788-2279,Open,No,400273.33,129383.22,294588,RecPt_13,1613,{F762A620-D31C-40C2-A140-F5E838DCC221},JLAY,2022/08/11 23:34:41+00,JLAY,2024/08/27 17:28:57+00
-8571482.06659656,4698316.27644812,Oxon Run Pool,501 MISSISSIPPI AVENUE SE,POOL,8,no,outdoor,Oxon Run Pool,https://dpr.dc.gov/page/oxon-run-pool-01,(202) 645-5042,Open,No,400092.7939375,129884.743625,310268,RecPt_14,1614,{A7D38933-0AC5-452A-88DB-BDC06D7D2961},JLAY,2022/08/11 23:34:41+00,JLAY,2022/08/11 23:34:41+00
-8572206.34958089,4708335.17681322,DPR Central Office,1275 1ST STREET NE,OFFICE,1,no,none,none,https://dpr.dc.gov/page/dpr-headquarters-relocation,(202) 673-7647,Open,No,399528.3720625,137663.127875,303729,RecPt_15,1615,{6B092574-8A7D-46AA-A545-88D3191F9FDA},JLAY,2022/08/11 23:34:41+00,JLAY,2022/08/11 23:34:41+00
-8571270.28086527,4705439.96291974,William H. Rumsey Aquatic Center,635 NORTH CAROLINA AVENUE SE,AQUATIC CENTER,6,no,indoor,William H. Rumsey Aquatic Facility,https://dpr.dc.gov/page/william-h-rumsey-aquatic-center,(202) 724-4495,Open,No,400257.791,135416.14,295159,RecPt_16,1616,{4CEC76F6-F6F5-4AAF-BC60-833C4FB0A759},JLAY,2022/08/11 23:34:41+00,JLAY,2022/08/11 23:34:41+00
-8575041.46999877,4717444.24207021,Fort Stevens RC Spray Park,1327 VAN BUREN STREET NW,SPRAY PARK,4,,spray park,none,https://dpr.dc.gov/page/spray-parks,(202) 541-3754,Open,No,397321.75575,144728.9984375,290152,RecPt_17,1617,{90961E65-9C2A-42B5-879E-2DCFE76AAB52},JLAY,2022/08/11 23:34:41+00,JLAY,2024/03/08 00:55:28+00
-8579626.51626189,4710508.61407917,Guy Mason RC Spray Park,3600 CALVERT STREET NW,SPRAY PARK,3,,spray park,none,https://dpr.dc.gov/page/spray-parks,(202) 727-7527,Open,No,393748.21825,139351.9743125,295826,RecPt_18,1618,{DF2916F3-5BB4-4738-A32E-240C85DB208F},JLAY,2022/08/11 23:34:41+00,JLAY,2024/03/08 00:55:28+00
-8562954.66354731,4706898.97301902,H.D. Woodson Aquatic Center,540 55TH STREET NE,AQUATIC CENTER,7,,indoor,none,https://dpr.dc.gov/page/hd-woodson-aquatic-center,(202) 673-2097,Open,No,406737.85,136551.42,309633,RecPt_19,1619,{CFDFD9CE-2E3C-4461-97A9-96203F6D8903},JLAY,2022/08/11 23:34:41+00,JLAY,2024/03/08 00:55:28+00
-8574984.43256697,4709910.97692885,Harrison RC Spray Park,1330 V STREET NW,SPRAY PARK,1,,spray park,none,https://dpr.dc.gov/page/spray-parks,(202) 673-7760,Open,No,397364.2116875,138886.2673125,283986,RecPt_20,1620,{64C631A5-F624-417E-8F5D-3968B96E66CE},JLAY,2022/08/11 23:34:41+00,JLAY,2024/03/08 00:55:28+00
-8567408.86837229,4701378.51302826,Hillcrest RC Spray Park,3100 DENVER STREET SE,SPRAY PARK,7,,spray park,none,https://dpr.dc.gov/page/spray-parks,(202) 645-9200,Open,No,403268.598375,132263.6488125,296174,RecPt_21,1621,{D98B4C0E-FCEF-474B-B9BF-0FF01479231A},JLAY,2022/08/11 23:34:41+00,JLAY,2024/03/08 00:55:28+00
-8570294.48457203,4707834.08142846,Joseph H. Cole RC Spray Park,1299 NEAL STREET NE,SPRAY PARK,5,,spray park,none,https://dpr.dc.gov/page/spray-parks,(202) 442-9262,Open,No,401018.0675625,137274.3235625,294512,RecPt_22,1622,{E4DD00EE-E1FA-45C5-8C6B-D72588474275},JLAY,2022/08/11 23:34:41+00,JLAY,2024/03/08 00:55:28+00
-8573986.37790184,4708715.69676385,Kennedy RC Spray Park,1401 7TH STREET NW,SPRAY PARK,2,,spray park,none,https://dpr.dc.gov/page/spray-parks,(202) 671-4794,Open,No,398141.5169375,137958.6070625,279127,RecPt_23,1623,{7CAB5DF0-14F7-488C-B1BE-F043562327D3},JLAY,2022/08/11 23:34:41+00,JLAY,2024/03/08 00:55:28+00
-8572979.27436019,4703776.6164662,King Greenleaf RC Spray Park,201 N STREET SW,SPRAY PARK,6,,spray park,none,https://dpr.dc.gov/page/spray-parks,(202) 645-7454,Open,No,398925.6605,134124.997875,52917,RecPt_24,1624,{CFC7855E-4D27-4BA1-8DE4-FA2CA543341B},JLAY,2022/08/11 23:34:41+00,JLAY,2024/03/08 00:55:28+00
-8579085.15637489,4712170.88682066,Macomb RC Spray Park,3409 MACOMB STREET NW,SPRAY PARK,3,,spray park,none,https://dpr.dc.gov/page/spray-parks,(202) 282-2199,Open,No,394191.58,140648.83,221115,RecPt_25,1625,{FD582CBD-F4B0-49DC-8AA0-A6AD45EDC749},JLAY,2022/08/11 23:34:41+00,JLAY,2024/08/26 23:21:52+00
-8576112.81928736,4710100.70241563,Happy Hollow Children's Pool,2200 CHAMPLAIN STREET NW,POOL,1,Marie Reed Learning Center,child,Happy Hollow Children's Pool,https://dpr.dc.gov/node/1598791,(202) 671-1289,Open,No,396485.221,139033.81,235577,RecPt_26,1626,{E543A944-8E98-4C19-BDEF-0CD0CFD96532},JLAY,2022/08/11 23:34:41+00,JLAY,2022/08/11 23:34:41+00
-8566956.087522,4710818.46996315,Theodore Hagans Pool,3201 FORT LINCOLN DRIVE NE,POOL,5,no,outdoor,Theodore Hagans Pool,https://dpr.dc.gov/page/theodore-hagans-pool,(202) 576-3019,Open,No,403618.2779375,139590.7230625,295140,RecPt_27,1627,{94657347-1565-4ADF-86DE-778D2F5AF233},JLAY,2022/08/11 23:34:41+00,JLAY,2022/08/11 23:34:41+00
-8570777.2824393,4712804.76510896,Turkey Thicket Aquatic Center,1100 MICHIGAN AVENUE NE,AQUATIC CENTER,5,no,indoor,Turkey Thicket Aquatic Center,https://dpr.dc.gov/page/turkey-thicket-aquatic-center,(202) 576-9236,Open,No,400641.561,141130.75,74603,RecPt_28,1628,{3664418C-1836-4983-9DE6-2E017F10B1B3},JLAY,2022/08/11 23:34:41+00,JLAY,2022/08/11 23:34:41+00
-8566956.09811701,4710817.75587045,Theodore Hagans Cultural Center,3201 FORT LINCOLN DRIVE NE,RECREATION CENTER,5,no,outdoor,Theodore Hagans Pool,https://dpr.dc.gov/page/theodore-hagans-cultural-center,(202) 576-3017,Closed,No,403618.26975,139590.16875,295140,RecPt_29,1629,{9A6D71C7-5E4C-4EE7-88C3-1A8D3DF157B2},JLAY,2022/08/11 23:34:41+00,JLAY,2024/08/27 17:28:57+00
-8572476.92419866,4709359.35811308,Harry Thomas Recreation Center,1743 LINCOLN ROAD NE,RECREATION CENTER,5,no,outdoor,Harry Thomas Pool,https://dpr.dc.gov/harrythomas,(202) 576-5642,Open,No,399317.62,138457.86,296786,RecPt_30,1630,{90C4656E-4F9F-406C-A655-9FA15CD3C4F3},JLAY,2022/08/11 23:34:41+00,JLAY,2024/08/27 17:28:57+00
-8573013.85701606,4708449.5543123,Dunbar Aquatic Center,101 N STREET NW,AQUATIC CENTER,5,Dunbar Senior High School,indoor,Dunbar Aquatic Center,https://dpr.dc.gov/page/dunbar-aquatic-center,(202) 724-5328,Open,No,398899.20825,137751.9464375,309947,RecPt_31,1631,{D5299095-D732-48A7-8898-7FC8C8133B4D},JLAY,2022/08/11 23:34:41+00,JLAY,2022/08/11 23:34:41+00
-8568658.49586284,4711227.24093065,Langdon Park Pool,2860 MILLS AVENUE NE,POOL,5,no,outdoor,Langdon Park Pool,https://dpr.dc.gov/page/langdon-park-pool,(202) 576-8655,Open,No,402291.86,139907.77,310266,RecPt_32,1632,{A14C4F1C-2920-4F9B-96B2-8DE458DA33D1},JLAY,2022/08/11 23:34:41+00,JLAY,2024/08/26 23:21:52+00
-8579058.16912328,4712180.65404396,Macomb Recreation Center,3409 MACOMB STREET NW,RECREATION CENTER,3,no,none,none,https://dpr.dc.gov/page/macomb-recreation-center-00,(202) 282-2199,Open,No,394191.58,140648.83,221115,RecPt_33,1633,{53D19E4B-355C-466A-801C-BB5DA355F5AB},JLAY,2022/08/11 23:34:41+00,JLAY,2024/08/26 23:21:52+00
-8581061.04371053,4708775.16399846,Hardy Recreation Center,4500 Q STREET NW,RECREATION CENTER,3,no,none,none,https://dpr.dc.gov/page/hardy-recreation-center-00,(202) 282-2190,Open,No,392629.48,138007.964,284929,RecPt_34,1634,{4BE0CE84-1B38-45DF-A4AA-57155351D925},JLAY,2022/08/11 23:34:41+00,JLAY,2022/08/11 23:34:41+00
-8581427.29871362,4713479.80793156,Friendship Spray Park,4500 VAN NESS STREET NW,SPRAY PARK,3,no,spray park,Friendship Rec Center Spray Park,https://dpr.dc.gov/page/spray-parks,(202) 282-2198,Open,No,392347.651,141658.007,295150,RecPt_35,1635,{AC116FF9-E1C7-4D7C-9367-6B4E5A46CE87},JLAY,2022/08/11 23:34:41+00,JLAY,2022/08/11 23:34:41+00
-8583173.40668246,4710908.3946423,Palisades Spray Park,5200 SHERIER PLACE NW,SPRAY PARK,3,no,spray park,Palisades Community Center Spray Park,https://dpr.dc.gov/page/spray-parks,(202) 282-2186,Open,No,390985.571,139664.793,268352,RecPt_36,1636,{2C01CF78-72FD-4838-BE6C-DA828726CD9A},JLAY,2022/08/11 23:34:41+00,JLAY,2022/08/11 23:34:41+00
-8579532.94888567,4713140.62224318,Hearst Recreation Center,3950 37TH STREET NW,RECREATION CENTER,3,Hearst Elementary School,none,none,https://dpr.dc.gov/page/hearst-recreation-center,(202) 282-2207,Open,No,393822.7,141393.64,294586,RecPt_37,1637,{4CF0470B-F6A3-4963-8F3B-6DFD36B30457},JLAY,2022/08/11 23:34:41+00,JLAY,2022/08/11 23:34:41+00
-8583241.14253944,4710859.59299934,Palisades Community Center,5200 SHERIER PLACE NW,RECREATION CENTER,3,no,none,none,https://dpr.dc.gov/page/palisades-community-center,(202) 545-7201,Open,Fitness Room,390932.76425,139626.992625,268352,RecPt_38,1638,{96451F9B-3E36-4344-85B7-21578C39CB07},JLAY,2022/08/11 23:34:41+00,JLAY,2022/08/11 23:34:41+00
-8580276.30915179,4714410.19010411,Wilson Aquatic Center,4551 FORT DRIVE NW,AQUATIC CENTER,3,Woodrow Senior High School,indoor,Wilson Aquatic Center,https://dpr.dc.gov/page/wilson-aquatic-center-01,(202) 730-0583,Open,No,393244.618,142378.766,307826,RecPt_39,1639,{59E1CBB5-AE3D-4653-A78E-95D8B6D76408},JLAY,2022/08/11 23:34:41+00,JLAY,2024/08/26 21:44:49+00
-8579962.2828715,4716683.40604473,Chevy Chase Community Center,5601 CONNECTICUT AVENUE NW,RECREATION CENTER,3,no,none,none,https://dpr.dc.gov/page/chevy-chase-community-center,(202) 282-2204,Open,Fitness Room,393490.5989375,144141.3213125,263959,RecPt_40,1640,{54590183-3340-43C9-97B0-7AE7F119CDE9},JLAY,2022/08/11 23:34:41+00,JLAY,2022/08/11 23:34:41+00
-8580590.52912296,4716439.86774524,Chevy Chase Playground,5500 41ST STREET NW,RECREATION CENTER,3,no,none,none,https://dpr.dc.gov/page/chevy-chase-recreation-center,(202) 282-2200,Closed,No,393001.33,143952.91,264727,RecPt_41,1641,{206BAA85-DD4E-4860-B4CE-D630BE3A53B6},JLAY,2022/08/11 23:34:41+00,JLAY,2024/08/27 19:52:38+00
-8581406.17924741,4713431.55643331,Friendship Recreation Center,4500 VAN NESS STREET NW,RECREATION CENTER,3,no,none,none,https://dpr.dc.gov/page/friendship-recreation-center,(202) 282-2198,Open,No,392364.061625,141620.567125,295150,RecPt_42,1642,{0F232DC5-8348-43C2-A9CC-CB17C1246AF6},JLAY,2022/08/11 23:34:41+00,JLAY,2022/08/11 23:34:41+00
-8579526.79183454,4710527.5022801,Guy Mason Community Center,3600 CALVERT STREET NW,RECREATION CENTER,3,no,none,none,https://dpr.dc.gov/page/guy-mason-community-center,(202) 727-7527,Open,No,393825.91400001,139366.567,295826,RecPt_43,1643,{53B64773-2939-4C24-81F5-128F2EDA4FD3},JLAY,2022/08/11 23:34:41+00,JLAY,2023/02/01 23:59:02+00
-8575070.42838839,4717414.18340279,Fort Stevens Recreation Center,1327 VAN BUREN STREET NW,RECREATION CENTER,4,no,none,none,https://dpr.dc.gov/page/fort-stevens-recreation-center-00,(202) 541-3754,Open,Fitness Room,397299.20525,144705.70075,290152,RecPt_44,1644,{7B4DEB2B-C493-4DE3-A086-7B7FE8529D44},JLAY,2022/08/11 23:34:41+00,JLAY,2022/08/11 23:34:41+00
-8574701.19061824,4715749.22567717,Emery Heights Community Center,5701 GEORGIA AVENUE NW,RECREATION CENTER,4,no,none,none,https://dpr.dc.gov/page/emery-heights-community-center,(202) 576-3211,Open,Fitness Room,397586.25,143414.65,309352,RecPt_45,1645,{0C4B3C0F-5A64-4645-96CE-EC69E290A8DE},JLAY,2022/08/11 23:34:41+00,JLAY,2024/03/07 23:30:47+00
-8575089.78234037,4714887.80701078,Hamilton Recreation Center,1340 HAMILTON STREET NW,RECREATION CENTER,4,no,none,none,https://dpr.dc.gov/page/hamilton-recreation-center,(202) 576-6855,Open,No,397283.465625,142746.7481875,255042,RecPt_46,1646,{1BA56322-A294-4788-8C01-9883EEF6F603},JLAY,2022/08/11 23:34:41+00,JLAY,2022/08/11 23:34:41+00
-8572517.93222038,4717050.87952334,Lamond Recreation Center,20 TUCKERMAN STREET NE,RECREATION CENTER,4,no,none,none,https://dpr.dc.gov/page/lamond-recreation-center,(202) 576-9541,Open,Cardio Center,399286.21025,144423.595375,296166,RecPt_47,1647,{68D8C81B-4FE7-4573-8C64-443FA21560BF},JLAY,2022/08/11 23:34:41+00,JLAY,2022/08/11 23:34:41+00
-8570994.04644777,4698567.09763183,Southeast Tennis & Learning Center,701 MISSISSIPPI AVENUE SE,RECREATION CENTER,8,no,none,none,https://dpr.dc.gov/page/southeast-tennis-and-learning-center-setlc,(202) 645-6242,Open,Fitness Room,400473.401,130079.58,295830,RecPt_48,1648,{439B4FDB-30D9-419B-880A-D75146C081A7},JLAY,2022/08/11 23:34:41+00,JLAY,2022/08/11 23:34:41+00
-8574115.00229144,4710606.81625346,Banneker Community Center,2500 GEORGIA AVENUE NW,RECREATION CENTER,1,no,outdoor,Banneker Pool,https://dpr.dc.gov/page/banneker-community-center,(202) 673-6861,Open,No,398041.6646875,139425.93525,232292,RecPt_49,1649,{8243D660-31ED-4E2D-BF25-38F406D622A1},JLAY,2022/08/11 23:34:41+00,JLAY,2024/08/27 17:28:57+00
-8574972.78886415,4709926.94220668,Harrison Recreation Center,1330 V STREET NW,RECREATION CENTER,1,no,none,none,https://dpr.dc.gov/page/harrison-recreation-center,(202) 673-6865,Closed,No,397373.287,138898.651,283986,RecPt_50,1650,{28848E13-391C-4758-856D-AD64B11CF5F2},JLAY,2022/08/11 23:34:41+00,JLAY,2024/08/27 17:28:57+00
-8576539.75446183,4710322.44027111,Kalorama Recreation Center,1875 COLUMBIA ROAD NW,RECREATION CENTER,1,no,none,none,https://dpr.dc.gov/page/kalorama-recreation-center,(202) 673-7606,Open,No,396152.712,139206,284143,RecPt_51,1651,{712A96F4-D64A-4EDD-88C6-1F8A860CDDCE},JLAY,2022/08/11 23:34:41+00,JLAY,2022/08/11 23:34:41+00
-8573980.06890446,4712367.94336553,Park View Recreation Center,693 OTIS PLACE NW,RECREATION CENTER,1,no,walk to learn,Parkview Children's Pool,https://dpr.dc.gov/page/park-view-recreation-center,(202) 671-2186,Open,No,398147.095875,140792.1106875,295160,RecPt_52,1652,{48AF5ECE-89C0-4756-8E32-6E6457219623},JLAY,2022/08/11 23:34:41+00,JLAY,2023/02/01 23:55:33+00
-8574113.45771481,4710605.76226932,Banneker Pool,2500 GEORGIA AVENUE NW,POOL,1,no,outdoor,Banneker Pool,https://dpr.dc.gov/page/banneker-pool,(202) 673-2121,Open,No,398042.868,139425.117,232292,RecPt_53,1653,{87E79666-F33D-43D2-BD96-383A5B17CAE6},JLAY,2022/08/11 23:34:41+00,JLAY,2022/08/11 23:34:41+00
-8576112.81928736,4710100.70241563,Marie Reed Aquatic Center,2200 CHAMPLAIN STREET NW,AQUATIC CENTER,1,Reed Elementary School,indoor,Marie Reed Aquatic Center,https://dpr.dc.gov/page/marie-reed-aquatic-center,(202) 671-0297,Open,No,396485.221,139033.81,235577,RecPt_54,1654,{547342E4-88F2-4919-85AF-E22186DF4C3F},JLAY,2022/08/11 23:34:41+00,JLAY,2022/08/11 23:34:41+00
-8573980.60428859,4712367.85686466,Park View Children's Pool,693 OTIS PLACE NW,POOL,1,no,child,Parkview Children's Pool,https://dpr.dc.gov/page/park-view-childrens-pool-1,(202) 576-8658,Open,No,398146.6785,140792.0444375,295160,RecPt_55,1655,{17C00899-788E-4B8D-B818-A4999040461C},JLAY,2022/08/11 23:34:41+00,JLAY,2022/08/11 23:34:41+00
-8575502.49631871,4710956.51113427,Columbia Heights Community Center,1480 GIRARD STREET NW,RECREATION CENTER,1,no,none,none,https://dpr.dc.gov/page/columbia-heights-comm-ctr,(202) 671-0373,Open,Fitness Room,396960.9319375,139697.57175,284045,RecPt_56,1656,{C6FB9453-FD9D-4C9B-B0F0-0418D4B50537},JLAY,2022/08/11 23:34:41+00,JLAY,2022/08/11 23:34:41+00
-8576112.81928736,4710100.70241563,Marie Reed Community Center,2200 CHAMPLAIN STREET NW,RECREATION CENTER,1,Reed Elementary School,indoor,Marie Reed Aquatic Center,https://dpr.dc.gov/page/marie-reed-community-center,(202) 673-7768,Open,No,396485.221,139033.81,235577,RecPt_57,1657,{C2871612-C5F3-49A8-A72E-A2161441DCE9},JLAY,2022/08/11 23:34:41+00,JLAY,2022/08/11 23:34:41+00
-8568403.26225817,4709326.7470673,Arboretum Community Center,2412 RAND PLACE NE,RECREATION CENTER,5,no,none,none,https://dpr.dc.gov/page/arboretum-community-center-00,(202) 673-4507,Open,Fitness Room,402491.338,138432.919125,296167,RecPt_58,1658,{026CBD2E-A3F0-4A76-8FC6-DC1C68683C13},JLAY,2022/08/11 23:34:41+00,JLAY,2024/08/27 17:28:57+00
-8569701.51661333,4710363.41368675,Brentwood Recreation Center,2311 14TH STREET NE,RECREATION CENTER,5,no,none,none,https://dpr.dc.gov/page/brentwood-recreation-center,(202) 576-6667,Open,No,401479.740125,139236.9924375,286825,RecPt_59,1659,{45BED8D5-6C33-413B-8198-3B2BCFC3AE45},JLAY,2022/08/11 23:34:41+00,JLAY,2022/08/11 23:34:41+00
-8571808.07626965,4710918.63629327,Edgewood Recreation Center,301 FRANKLIN STREET NE,RECREATION CENTER,5,no,none,none,https://dpr.dc.gov/page/edgewood-recreation-center-01,(202) 788-2204,Open,Fitness Room,399838.7306875,139667.6074375,289734,RecPt_60,1660,{2374A65C-797C-489F-A5DE-3E76B6449FA3},JLAY,2022/08/11 23:34:41+00,JLAY,2022/08/11 23:34:41+00
-8568906.03600536,4711196.32406173,Langdon Park Community Center,2901 20TH STREET NE,RECREATION CENTER,5,no,outdoor,Langdon Park Pool,https://dpr.dc.gov/page/langdon-park-community-center,(202) 654-6102,Open,No,402099.41,139883.09,287283,RecPt_61,1661,{56A0C717-D1B0-4105-8EC6-317D3D093D67},JLAY,2022/08/11 23:34:41+00,JLAY,2024/08/27 17:28:57+00
-8570092.81460045,4714485.67478905,North Michigan Park Recreation Center,1333 EMERSON STREET NE,RECREATION CENTER,5,no,none,none,https://dpr.dc.gov/page/north-michigan-park-recreation-center-0,(202) 541-3526,Open,Fitness Room,401174.4430625,142434.5100625,296163,RecPt_62,1662,{657ECD8C-BDB5-4AE7-9C6E-65C2720C5E4C},JLAY,2022/08/11 23:34:41+00,JLAY,2022/08/11 23:34:41+00
-8569680.44536678,4708280.15411477,Trinidad Recreation Center,1310 CHILDRESS STREET NE,RECREATION CENTER,5,no,none,none,https://dpr.dc.gov/page/trinidad-recreation-center,(202) 727-1293,Open,Fitness Room,401496.4604375,137620.5575625,68509,RecPt_63,1663,{7D9DDE00-3F40-482F-BBA1-65EF4DBDE6C4},JLAY,2022/08/11 23:34:41+00,JLAY,2022/08/11 23:34:41+00
-8570798.74398356,4712810.9242134,Turkey Thicket Recreation Center,1100 MICHIGAN AVENUE NE,RECREATION CENTER,5,no,indoor,Turkey Thicket Aquatic Center,https://dpr.dc.gov/page/turkey-thicket-recreation-center,(202) 576-9238,Open,Fitness Room,400624.8456875,141135.5258125,74603,RecPt_64,1664,{D29CEFA5-75FC-4DBC-9717-C6BEEF8C9895},JLAY,2022/08/11 23:34:41+00,JLAY,2022/08/11 23:34:41+00
-8575173.87489169,4711009.97153733,14th and Girard Street Spray Park,14TH STREET NW AND GIRARD STREET NW,SPRAY PARK,1,,spray park,none,https://dpr.dc.gov/page/spray-parks,,Open,No,397216.92875,139738.951875,308768,RecPt_65,1665,{78462475-7307-4E77-AA96-9B8D8D387353},JLAY,2022/08/11 23:34:41+00,JLAY,2024/03/08 00:54:38+00
-8575216.28949455,4711683.97545084,Columbia Heights Civic Plaza,14TH STREET NW AND PARK ROAD NW,SPRAY PARK,1,,spray park,none,https://dpr.dc.gov/page/spray-parks,,Open,No,397184.075625,140261.83225,310272,RecPt_66,1666,{E35E7614-7A68-4AF3-8D93-36AD1466C240},JLAY,2022/08/11 23:34:41+00,JLAY,2024/08/26 21:25:26+00
-8580603.30005707,4716417.56284119,Chevy Chase RC Spray Park,5500 41ST STREET NW,SPRAY PARK,3,,spray park,none,https://dpr.dc.gov/page/spray-parks,(202) 727-7714,Closed,No,392991.371,143935.6200625,264727,RecPt_67,1667,{D6168A7C-8015-43B9-A33B-9F29B76924EF},JLAY,2022/08/11 23:34:41+00,JLAY,2024/08/27 19:52:38+00
-8565534.88878016,4702936.18527923,Fort Davis CC Spray Park,1400 41ST STREET SE,SPRAY PARK,7,,spray park,none,https://dpr.dc.gov/page/spray-parks,(202) 645-9212,Open,No,404728.9991875,133473.853,295122,RecPt_68,1668,{B04605FB-3B80-4341-8CDF-0F7A54E28907},JLAY,2022/08/11 23:34:41+00,JLAY,2024/03/08 00:55:28+00
-8573002.1251016,4696786.55143478,Fort Greble Spray Park,MARTIN LUTHER KING JR AVENUE SW AND ELMIRA STREET SW,SPRAY PARK,8,,spray park,none,https://dpr.dc.gov/page/spray-parks,,Closed,No,398907.1,128696.52,904021,RecPt_69,1669,{BE72CF54-F961-45F6-8CDC-296AC7E1E03E},JLAY,2022/08/11 23:34:41+00,JLAY,2024/08/27 00:12:59+00
-8569723.17338387,4703439.75185467,Anacostia Pool,1800 ANACOSTIA DRIVE SE,POOL,8,no,outdoor,Anacostia Fitness Pool,https://dpr.dc.gov/page/anacostia-pool,(202) 724-1441,Open,No,401463.8615625,133863.53575,295129,RecPt_70,1670,{0FCB915D-3109-4F27-8919-BD25A86B0BA1},JLAY,2022/08/11 23:34:41+00,JLAY,2022/08/11 23:34:41+00
-8571250.60977716,4697670.61972964,Ferebee-Hope Aquatic Center,700 YUMA STREET SE,AQUATIC CENTER,8,Ferebee-Hope Elementary School,indoor,Ferebee-Hope Aquatic Center,https://dpr.dc.gov/page/ferebee-hope-aquatic-center,(202) 645-3916,Open,No,400273.33,129383.22,294588,RecPt_71,1671,{047901CE-FB4A-41C0-BAE6-1B704F69E733},JLAY,2022/08/11 23:34:41+00,JLAY,2024/08/26 21:25:26+00
-8571189.68195632,4701685.61929814,Barry Farm Aquatic Center,1230 SUMNER ROAD SE,AQUATIC CENTER,8,no,indoor,Barry Farm  Aquatic Center,https://dpr.dc.gov/page/barry-farm-aquatic-center,(202) 442-5420,Open,No,400320.72575,132501.4505,285960,RecPt_72,1672,{2DF50B87-4F4C-4927-ABDC-54999E14370D},JLAY,2022/08/11 23:34:41+00,JLAY,2022/08/11 23:34:41+00
-8569073.42750442,4700581.06456307,Douglass Pool,1921 FREDERICK DOUGLASS COURT SE,POOL,8,no,outdoor,Douglass Pool,https://dpr.dc.gov/page/douglass-pool,(202) 645-5045,Open,No,401970.912125,131643.9641875,310261,RecPt_73,1673,{9FE131C2-D3C1-453A-8505-D8607F13372A},JLAY,2022/08/11 23:34:41+00,JLAY,2022/08/11 23:34:41+00
-8569186.13399314,4701302.01450293,Fort Stanton Pool,1800 ERIE STREET SE,POOL,8,no,outdoor,Fort Stanton Pool,https://dpr.dc.gov/page/fort-stanton-pool,(202) 678-1798,Open,No,401882.8955,132203.796125,302145,RecPt_74,1674,{8F46E1C5-E448-4E67-B1FF-E10BBB6F307F},JLAY,2022/08/11 23:34:41+00,JLAY,2022/08/11 23:34:41+00
-8573997.80904479,4708641.07608256,Kennedy Recreation Center,1401 7TH STREET NW,RECREATION CENTER,2,no,none,none,https://dpr.dc.gov/page/kennedy-recreation-center,(202) 671-4794,Open,Fitness Room,398132.5970625,137900.7058125,279127,RecPt_75,1675,{3371CE7F-D30A-4693-BD7E-DDC87922308A},JLAY,2022/08/11 23:34:41+00,JLAY,2022/08/11 23:34:41+00
-8570471.74691989,4704977.65817482,Watkins Recreation Center,420 12TH STREET SE,RECREATION CENTER,6,no,child,Watkins Children's Pool,https://dpr.dc.gov/page/watkins-recreation-center,(202) 899-6005,Closed,No,400880.192375,135057.3305,294486,RecPt_76,1676,{1E71902E-C9C8-48C4-8A65-C799B5698083},JLAY,2022/08/11 23:34:41+00,JLAY,2024/08/27 17:28:57+00
-8572648.6470672,4704436.00805589,Randall Recreation Center,820 SOUTH CAPITOL STREET SW,RECREATION CENTER,6,no,outdoor,Randall Pool,https://dpr.dc.gov/page/randall-recreation-center-00,(202) 545-7255,Closed,No,399183.44,134636.86,276842,RecPt_77,1677,{E0C2D823-B290-409C-A99D-B2C89F8A9934},JLAY,2022/08/11 23:34:41+00,JLAY,2024/08/27 17:28:57+00
-8571420.67763065,4704116.55452241,Lincoln Capper Children's Pool,555 L STREET SE,POOL,8,no,child,Lincoln Capper Children's Pool,https://dpr.dc.gov/page/lincoln-capper-childrens-pool,(202) 727-1080,Open,No,400140.59,134388.83,289646,RecPt_78,1678,{FC30023E-4E36-4EB9-8377-FA0163E88827},JLAY,2022/08/11 23:34:41+00,JLAY,2024/08/26 23:21:52+00
-8580590.52912296,4716439.86774524,Chevy Chase Recreation Center,5500 41ST STREET NW,RECREATION CENTER,3,,none,none,https://dpr.dc.gov/page/chevy-chase-recreation-center,(202) 727-7714,Closed,No,393001.33,143952.91,264727,RecPt_79,1679,{7A406743-214C-4255-9564-E76F0A16C94B},JLAY,2022/08/11 23:34:41+00,JLAY,2024/08/27 17:28:57+00
-8570840.60488219,4707158.27784124,Sherwood Recreation Center,640 10TH STREET NE,RECREATION CENTER,6,no,none,none,https://dpr.dc.gov/page/sherwood-recreation-center,(202) 698-3075,Open,Fitness Room,400592.57225,136749.82,301075,RecPt_80,1680,{828FFD51-E7BF-4AFC-A2D4-3D6666C1C41C},JLAY,2022/08/11 23:34:41+00,JLAY,2022/08/11 23:34:41+00
-8572751.51682931,4704475.72459013,Randall Pool,25 I STREET SW,POOL,6,no,outdoor,Randall Pool,https://dpr.dc.gov/page/randall-pool,(202) 727-1420,Open,No,399103.26075,134667.69975,310270,RecPt_81,1681,{304A6022-A41B-491A-93F1-8FAAA9CF04B1},JLAY,2022/08/11 23:34:41+00,JLAY,2022/08/11 23:34:41+00
-8573116.86413174,4707931.17001721,RH Terrell Recreation Center,155 L STREET NW,RECREATION CENTER,6,Walker Jones Education Center,none,none,https://dpr.dc.gov/page/rh-terrell-recreation-center-01,(202) 939-5948,Closed,Fitness Room,398818.89,137349.69,307736,RecPt_82,1682,{88AF1CD1-89B7-40E8-BBDB-EAB56856BEBD},JLAY,2022/08/11 23:34:41+00,JLAY,2024/08/27 17:28:57+00
-8570320.95658077,4707947.61978139,Joseph Cole Community Center,1299 NEAL STREET NE,RECREATION CENTER,5,no,none,none,https://dpr.dc.gov/page/joseph-cole-community-center,(202) 442-9262,Open,No,400997.43,137362.43,294512,RecPt_83,1683,{E289F67B-84EA-4691-8FCB-615CB665CE66},JLAY,2022/08/11 23:34:41+00,JLAY,2024/08/27 17:28:57+00
-8561896.24806357,4706132.947015,Marvin Gaye Recreation Center,15 61ST STREET NE,RECREATION CENTER,7,no,none,none,https://dpr.dc.gov/page/marvin-gaye-recreation-center-00,(202) 899-6004,Open,No,407563.2,135957.63,320321,RecPt_84,1684,{9257C2B7-0C25-49DA-8C0F-1B9713D0AC8B},JLAY,2022/08/11 23:34:41+00,JLAY,2024/08/27 17:28:57+00
-8575203.58180444,4710505.8265655,Rita Bright Family & Youth Center,2500 14TH STREET NW,RECREATION CENTER,1,no,none,none,https://dpr.dc.gov/page/rita-bright-community-center-01,(202) 727-0025,Open,No,397193.65,139347.84,234200,RecPt_85,1685,{0A30ECFE-6ABD-467C-BCC8-BD4228A71887},JLAY,2022/08/11 23:34:41+00,JLAY,2022/08/11 23:34:41+00
-8577729.16603819,4708500.87089102,Rose Park Recreation Center,2609 DUMBARTON STREET NW,RECREATION CENTER,2,no,none,none,https://dpr.dc.gov/page/rose-park-recreation-center,(202) 316-4210,Open,No,395225.30000001,137793.13,309353,RecPt_86,1686,{C70A01DB-138F-4AEE-ACAD-128897B5D4E9},JLAY,2022/08/11 23:34:41+00,JLAY,2022/08/11 23:34:41+00
-8574273.1020948,4713226.31095218,Petworth Recreation Center,801 TAYLOR STREET NW,RECREATION CENTER,4,no,none,none,https://dpr.dc.gov/page/petworth-recreation-center,(202) 576-6850,Open,No,397919.042,141457.965,296169,RecPt_87,1687,{78A406D0-E597-4386-A166-E6F7A09E5206},JLAY,2022/08/11 23:34:41+00,JLAY,2022/08/11 23:34:41+00
-8573608.33180545,4717277.99151491,Takoma Community Center,300 VAN BUREN STREET NW,RECREATION CENTER,4,no,none,none,https://dpr.dc.gov/page/takoma-community-center,(202) 576-7068,Open,Fitness Room,398440.43,144553.14,296168,RecPt_88,1688,{1B0231EF-209B-4A4C-9709-BD01A401AB6C},JLAY,2022/08/11 23:34:41+00,JLAY,2024/08/26 22:26:47+00
-8572476.92419866,4709359.35811308,Harry Thomas Pool,1743 LINCOLN ROAD NE,POOL,5,no,outdoor,Harry Thomas Pool,https://dpr.dc.gov/page/harry-thomas-sr-pool,(202) 541-7499,Open,No,399317.62,138457.86,296786,RecPt_89,1689,{E5DAE05D-DC07-40FE-8F13-F7B80E155018},JLAY,2022/08/11 23:34:41+00,JLAY,2023/02/02 00:06:24+00
-8575198.30663343,4713556.06506043,Upshur Recreation Center,4300 ARKANSAS AVENUE NW,RECREATION CENTER,4,no,outdoor,Upshur Pool,https://dpr.dc.gov/page/upshur-recreation-center,(202) 576-6842,Open,No,397198.597,141713.948,295147,RecPt_90,1690,{82DAC0AE-66A4-49DC-BC10-FE842ADC1CD2},JLAY,2022/08/11 23:34:41+00,JLAY,2022/08/11 23:34:41+00
-8579143.07805157,4717082.62996478,Lafayette-Pointer Spray Park,5900 33RD STREET NW,SPRAY PARK,4,no,spray park,Lafayette Recreation Center Spray Park,https://dpr.dc.gov/page/spray-parks,(202) 282-2206,Open,No,394128.597,144450.359,308530,RecPt_91,1691,{115EAD0B-9DA0-4633-B570-E992A547F88B},JLAY,2022/08/11 23:34:41+00,JLAY,2022/08/11 23:34:41+00
-8574278.01499551,4713265.91918826,Petworth Spray Park,801 TAYLOR STREET NW,SPRAY PARK,4,no,spray park,Petworth Rec Center Spray Park,https://dpr.dc.gov/page/spray-parks,(202) 576-6850,Open,No,397915.224375,141488.6870625,296169,RecPt_92,1692,{FBC80243-3184-4877-A73A-FDFD9E9711AA},JLAY,2022/08/11 23:34:41+00,JLAY,2022/08/11 23:34:41+00
-8571464.59033486,4715954.55772057,Riggs-LaSalle Spray Park,501 RIGGS ROAD NE,SPRAY PARK,4,Jessie LaSalle Elementary School,spray park,Riggs LaSalle Rec Center Spray Park,https://dpr.dc.gov/page/spray-parks,(202) 576-5224,Open,No,400106.24125,143573.5015,294489,RecPt_93,1693,{23EC892F-6FEA-4E3E-84D7-66D543EE2144},JLAY,2022/08/11 23:34:41+00,JLAY,2023/02/02 00:03:06+00
-8575129.83554574,4713680.27926253,Upshur Pool,4300 ARKANSAS AVENUE NW,POOL,4,no,outdoor,Upshur Pool,https://dpr.dc.gov/page/upshur-pool,(202) 576-8661,Open,No,397251.953125,141810.268875,301563,RecPt_94,1694,{A082878C-2890-4D45-BDD8-1B784FEEB272},JLAY,2022/08/11 23:34:41+00,JLAY,2022/08/11 23:34:41+00
-8574566.77714311,4712571.57352102,Raymond Recreation Center,3725 10TH STREET NW,RECREATION CENTER,4,no,none,none,https://dpr.dc.gov/page/raymond-recreation-center,(202) 671-2181,Open,Fitness Room,397690.184125,140950.1825,310493,RecPt_95,1695,{C9997E48-5C22-467E-B9E9-B3948565059B},JLAY,2022/08/11 23:34:41+00,JLAY,2024/06/20 18:49:58+00
-8573604.39693627,4717217.80679915,Takoma Aquatic Center,300 VAN BUREN STREET NW,AQUATIC CENTER,4,no,indoor,Takoma Aquatic Center,https://dpr.dc.gov/page/takoma-aquatic-center,(202) 576-9284,Open,No,398440.43,144553.14,296168,RecPt_96,1696,{B2A4DE11-E070-4D91-AFA7-DD99C2AC11FA},JLAY,2022/08/11 23:34:41+00,JLAY,2024/08/26 22:26:47+00
-8571529.80893652,4716009.83587579,Riggs-LaSalle Community Center,501 RIGGS ROAD NE,RECREATION CENTER,4,Jessie LaSalle Elementary School,none,none,https://dpr.dc.gov/page/riggs-lasalle-recreation-center-00,(202) 576-5224,Open,Cardio Center,400055.4626875,143616.365375,310271,RecPt_97,1697,{6EF91628-927F-4617-B580-6F1927E4418F},JLAY,2022/08/11 23:34:41+00,JLAY,2023/02/02 00:02:28+00
-8579060.77293925,4717049.66387599,Lafayette-Pointer Recreation Center,5900 33RD STREET NW,RECREATION CENTER,4,no,none,none,https://dpr.dc.gov/page/lafayette-pointer-recreation-center,(202) 282-2206,Open,No,394192.652125,144424.7519375,308530,RecPt_98,1698,{9D4B9A86-21C8-44FA-A129-04D0E602DF1C},JLAY,2022/08/11 23:34:41+00,JLAY,2022/08/11 23:34:41+00
-8569723.12716941,4703439.93088652,Anacostia Recreation Center,1800 ANACOSTIA DRIVE SE,RECREATION CENTER,8,Kenilworth Elementary School,outdoor,Anacostia Fitness Pool,https://dpr.dc.gov/page/anacostia-recreation-center-01,(202) 698-2250,Closed,Fitness Room,401463.8984375,133863.6750625,295129,RecPt_99,1699,{02DF66C7-E383-4655-B31A-685C624E4DEF},JLAY,2022/08/11 23:34:41+00,JLAY,2024/08/27 17:28:57+00
-8569233.1450957,4701294.50103746,Fort Stanton Recreation Center,1812 ERIE STREET SE,RECREATION CENTER,8,no,outdoor,Fort Stanton Pool,https://dpr.dc.gov/page/fort-stanton-recreation-center,(202) 671-1040,Open,Fitness Room,401846.243125,132197.9525,296165,RecPt_100,1700,{3277E1D9-1921-4A83-B2BB-981A6ABA9461},JLAY,2022/08/11 23:34:41+00,JLAY,2022/08/11 23:34:41+00
-8572731.96932329,4695762.6400582,Bald Eagle Recreation Center,100 JOLIET STREET SW,RECREATION CENTER,8,no,none,none,https://dpr.dc.gov/page/bald-eagle-recreation-center,(202) 671-5125,Open,Fitness Room,399117.744,127901.015,301277,RecPt_101,1701,{A5D2FDAC-655E-4E19-BF0F-3BD275BF136D},JLAY,2022/08/11 23:34:41+00,JLAY,2022/08/11 23:34:41+00
-8571189.17921023,4701684.80149877,Barry Farm Recreation Center,1230 SUMNER ROAD SE,RECREATION CENTER,8,no,none,none,https://dpr.dc.gov/page/barry-farm-recreation-center-00,(202) 442-5420,Open,Fitness Room,400321.1183125,132500.8159375,285960,RecPt_102,1702,{40FFEE80-8A29-4215-BA77-060717B09227},JLAY,2022/08/11 23:34:41+00,JLAY,2024/08/27 17:28:57+00
-8571247.61277249,4699100.84128425,Congress Heights Recreation Center,611 ALABAMA AVENUE SE,RECREATION CENTER,8,no,none,none,https://dpr.dc.gov/page/congress-heights-recreation-center,(202) 645-3981,Closed For Renovations,No,400275.629,130494.134,307835,RecPt_103,1703,{10C20D9E-59A4-46F6-BC78-450FC1300803},JLAY,2022/08/11 23:34:41+00,JLAY,2024/08/27 17:28:57+00
-8573021.31764139,4703795.23920957,King-Greenleaf Recreation Center,201 N STREET SW,RECREATION CENTER,6,no,none,none,https://dpr.dc.gov/page/king-greenleaf-recreation-center,(202) 645-7454,Open,Fitness Room,398892.8900625,134139.4600625,52917,RecPt_104,1704,{E4D84348-286B-4BB0-B037-23683017C9AA},JLAY,2022/08/11 23:34:41+00,JLAY,2023/02/01 22:38:09+00
-8563464.59139062,4704469.97696852,Woody Ward Community Center,5100 SOUTHERN AVENUE SE,RECREATION CENTER,7,no,outdoor,Woody Ward Pool,https://dpr.dc.gov/page/woody-ward-community-center,(202) 645-3957,Open,Fitness Room,406341.9890625,134665.7261875,296175,RecPt_105,1705,{5CCAEF02-EF57-4CC7-92A7-C1938AC2065D},JLAY,2022/08/11 23:34:41+00,JLAY,2024/03/08 00:48:00+00
-8565836.37310322,4705769.56853162,Benning Stoddert Recreation Center,100 STODDERT PLACE SE,RECREATION CENTER,7,no,none,none,https://dpr.dc.gov/page/benning-stoddert-recreation-center-0,(202) 698-1873,Open,Fitness Room,404492.7230625,135673.248625,295821,RecPt_106,1706,{813DF98A-C675-4D38-8D3E-D017830845D4},JLAY,2022/08/11 23:34:41+00,JLAY,2022/08/11 23:34:41+00
-8565439.10359398,4702936.89893017,Fort Davis Recreation Center,1400 41ST STREET SE,RECREATION CENTER,7,no,none,none,https://dpr.dc.gov/page/fort-davis-recreation-center-0,(202) 645-9212,Open,No,404803.67,133474.45225,295122,RecPt_107,1707,{4D2CD2DA-1AEB-42E2-83C9-CEF8A6E551A4},JLAY,2022/08/11 23:34:41+00,JLAY,2022/08/11 23:34:41+00
-8565002.36198715,4703988.28119805,Ridge Road Community Center,830 RIDGE ROAD SE,RECREATION CENTER,7,no,outdoor,Ridge Road Pool,https://dpr.dc.gov/page/ridge-road-recreation-center-000,(202) 671-6747,Open,Fitness Room,405143.6114375,134290.915875,310262,RecPt_108,1708,{FF248D98-82EC-48A0-9490-D52894F4E812},JLAY,2022/08/11 23:34:41+00,JLAY,2023/02/02 00:13:05+00
-8565002.36198715,4703988.28119805,Ridge Road Pool,830 RIDGE ROAD SE,POOL,7,no,outdoor,Ridge Road Pool,https://dpr.dc.gov/page/ridge-road-pool,(202) 645-5046,Open,No,405143.6114375,134290.915875,310262,RecPt_109,1709,{720D0AD9-05DC-4BDC-9799-C75EBB881BC4},JLAY,2022/08/11 23:34:41+00,JLAY,2022/08/11 23:34:41+00
-8564049.30774226,4708566.8702207,Deanwood Community Center,1350 49TH STREET NE,RECREATION CENTER,7,no,indoor,Deanwood Aquatic Center,https://dpr.dc.gov/page/deanwood-recreation-center-00,(202) 671-3077,Open,Fitness Room,405883.866875,137845.0895,307551,RecPt_110,1710,{0858D7D2-A079-44F0-9F8A-EEB369BE63ED},JLAY,2022/08/11 23:34:41+00,JLAY,2022/08/11 23:34:41+00
-8573072.54082652,4708320.3867231,New York Avenue Recreation Center,100 N STREET NW,RECREATION CENTER,5,,none,none,https://dpr.dc.gov/page/new-york-avenue-recreation-center,(202) 899-6280,Open,No,398853.47,137651.72,305773,RecPt_111,1711,{1D94435A-2ED1-4C99-A6DA-F694326070B1},JLAY,2022/08/11 23:34:41+00,JLAY,2024/08/27 17:28:57+00
-8564048.3158111,4708566.61689479,Deanwood Aquatic Center,1350 49TH STREET NE,AQUATIC CENTER,7,no,indoor,Deanwood Aquatic Center,https://dpr.dc.gov/page/deanwood-aquatic-center,(202) 671-3078,Open,No,405884.6403125,137844.894125,307551,RecPt_112,1712,{2075C10F-EF17-4FF9-94D9-9D86D8DA9A83},JLAY,2022/08/11 23:34:41+00,JLAY,2024/08/26 21:44:49+00
-8563464.59139062,4704469.97696852,Woody Ward Pool,5100 SOUTHERN AVENUE SE,POOL,7,no,outdoor,Woody Ward Pool,https://dpr.dc.gov/node/1236146,(202) 645-5044,Open,No,406341.9890625,134665.7261875,296175,RecPt_113,1713,{ED0D7068-B3C5-4BF4-AC03-2D5F9A3BEBB0},JLAY,2022/08/11 23:34:41+00,JLAY,2023/02/02 00:10:26+00
-8561844.94087582,4706175.95605193,Marvin Gaye RC Spray Park,6201 BANKS PLACE NE,SPRAY PARK,7,,spray park,none,https://dpr.dc.gov/page/spray-parks,(202) 899-6004,Open,No,407603.16,135991.05,288795,RecPt_114,1714,{9E971A5B-94A3-4229-B829-11A7DBCBCA6E},JLAY,2022/08/11 23:34:41+00,JLAY,2024/03/08 00:55:28+00
-8569278.25589089,4707045.62952995,Rosedale Pool,1701 GALES STREET NE,POOL,7,,outdoor,Rosedale Pool,https://dpr.dc.gov/page/rosedale-pool,(202) 397-1315,Open,No,401810.05,136662.58,307101,RecPt_115,1715,{81EDA858-6B39-46AA-9C71-E677C66E1978},JLAY,2022/08/11 23:34:41+00,JLAY,2022/08/11 23:34:41+00
-8569278.25589089,4707045.62952995,Rosedale Recreation Center,1701 GALES STREET NE,RECREATION CENTER,7,,none,none,https://dpr.dc.gov/page/rosedale-community-center-00,(202) 727-2591,Open,Fitness Room,401810.05,136662.58,307101,RecPt_116,1716,{ABCA2935-ED4A-479A-AFE3-1762C04E492E},JLAY,2022/08/11 23:34:41+00,JLAY,2024/03/08 00:55:28+00
-8565027.84064831,4708551.30247388,Kenilworth Recreation Center,4321 ORD STREET NE,RECREATION CENTER,7,no,outdoor,Kenilworth Pool,https://dpr.dc.gov/page/kenilworth-recreation-center,(202) 299-5094,Open,No,405121.460375,137832.4799375,314577,RecPt_117,1717,{8BF402EB-56AC-496F-890D-AF73A4159455},JLAY,2022/08/11 23:34:41+00,JLAY,2022/08/11 23:34:41+00
-8571503.81167934,4704198.6314485,Arthur Capper Community Center,1000 5TH STREET SE,RECREATION CENTER,8,,child,Lincoln Capper Children's Pool,https://dpr.dc.gov/page/arthur-capper-community-center,(202) 478-9260,Open,Fitness Room,400075.791,134452.544,289437,RecPt_118,1718,{E1944FD8-508C-4161-9278-5EB34B18A476},JLAY,2022/08/11 23:34:41+00,JLAY,2022/08/11 23:34:41+00
-8574344.55412412,4709511.147643,Westminster Playground Spray Park,911 WESTMINSTER STREET NW,SPRAY PARK,1,,spray park,none,https://dpr.dc.gov/page/spray-parks,,Open,No,397862.6184375,138575.8935,311977,RecPt_119,1719,{4CF49893-FAB8-482B-90BC-9E414B2EC9DC},JLAY,2022/08/11 23:34:41+00,JLAY,2024/03/08 00:55:28+00
-8575757.84631405,4708811.0466907,Stead RC Spray Park,1625 P STREET NW,SPRAY PARK,2,no,spray park,none,https://dpr.dc.gov/page/spray-parks,(202) 673-4465,Open,No,396761.343875,138033.0385,295822,RecPt_120,1720,{1DC18C3B-EF22-4892-9E19-38797E217FCA},JLAY,2022/08/11 23:34:41+00,JLAY,2024/03/08 00:56:57+00
-8573498.10015237,4717411.34355278,Takoma CC Spray Park,300 VAN BUREN STREET NW,SPRAY PARK,4,no,spray park,Takoma CC Spray Park,https://dpr.dc.gov/page/spray-parks,(202) 576-9284,Open,No,398440.43,144553.14,296168,RecPt_121,1721,{9ECAA5DE-E782-4EDD-9069-67A8F2D78BD9},JLAY,2022/08/11 23:34:41+00,JLAY,2024/08/26 22:26:47+00
-8568714.66549717,4711201.60403031,Langdon Park Spray Park,2860 MILLS AVENUE NE,SPRAY PARK,5,no,spray park,Langdon Park Spray Park,https://dpr.dc.gov/page/spray-parks,(202) 576-8655,Open,No,402291.86,139907.77,310266,RecPt_122,1722,{CD28B670-4F9C-43DE-BD7A-AE6E51028953},JLAY,2022/08/11 23:34:41+00,JLAY,2024/08/26 23:21:52+00
-8570765.07909749,4712901.58729574,Turkey Thicket RC Spray Park,1100 MICHIGAN AVENUE NE,SPRAY PARK,5,no,spray park,Turkey Thicket Aquatic Center,https://dpr.dc.gov/page/spray-parks,(202) 576-9238,Closed For Renovations,,400651.059125,141205.851375,74603,RecPt_123,1723,{C6315B7D-ABB3-48AB-8F1C-32778A430FEB},JLAY,2022/08/11 23:34:41+00,JLAY,2024/08/27 00:12:59+00
-8570433.65974264,4705008.14298597,Watkins RC Spray Park,420 12TH STREET SE,SPRAY PARK,6,no,spray park,none,https://dpr.dc.gov/page/spray-parks,(202) 724-4468,Open,No,400909.8745,135080.9978125,294486,RecPt_124,1724,{D2D62295-C7CA-425A-B4DA-2DCA286F450B},JLAY,2022/08/11 23:34:41+00,JLAY,2024/03/08 00:55:28+00
-8573427.23092062,4709978.22915693,Park at LeDroit Spray Park,319 OAKDALE PLACE NW,SPRAY PARK,1,,spray park,none,https://dpr.dc.gov/page/spray-parks,,Open,No,398577.34125,138938.134625,284597,RecPt_125,1725,{EBD088B8-AE3B-47CB-B973-CF28B1FD64DD},JLAY,2022/08/11 23:34:41+00,JLAY,2024/03/08 00:55:28+00
-8565857.7536109,4705803.78263526,Benning Stoddert CC Spray Park,100 STODDERT PLACE SE,SPRAY PARK,7,no,spray park,none,https://dpr.dc.gov/page/spray-parks,(202) 698-1873,Open,No,404476.045375,135699.7961875,295821,RecPt_127,1727,{950773FD-AAAF-4D0D-A712-FD466463556C},JLAY,2022/08/11 23:34:41+00,JLAY,2022/08/11 23:34:41+00
-8570375.92953599,4704373.7497513,Potomac Avenue Triangle Spray Park,1250 POTOMAC AVENUE SE,SPRAY PARK,6,,spray park,none,https://dpr.dc.gov/page/spray-parks,,Open,No,400955.55,134587.89,320508,RecPt_128,1728,{526F12C2-4E00-4B75-AD85-5E5A3455EF83},JLAY,2022/08/11 23:34:41+00,JLAY,2024/08/26 21:25:26+00
-8571134.94618865,4705105.32426792,Eastern Market Metro Spray Park,701 PENNSYLVANIA AVENUE SE,SPRAY PARK,6,,spray park,none,https://dpr.dc.gov/page/spray-parks,,Open,No,400363.28025,135156.3899375,294870,RecPt_129,1729,{6855D4CD-2829-4A97-8F29-8EFF0EACBC74},JLAY,2022/08/11 23:34:41+00,JLAY,2024/03/08 00:55:28+00
-8571828.18083421,4710957.67450531,Edgewood RC Spray Park,301 FRANKLIN STREET NE,SPRAY PARK,5,no,spray park,none,https://dpr.dc.gov/page/spray-parks,(202) 788-2204,Open,No,399823.0706875,139697.89325,289734,RecPt_130,1730,{3F327377-6E0E-4778-BE9C-3E3B900E708B},JLAY,2022/08/11 23:34:41+00,JLAY,2022/08/11 23:34:41+00
-8563408.81678698,4706926.01492869,Marvin Gaye Park at Division Avenue,DIVISION AVENUE NE AND FOOTE STREET NE,SPRAY PARK,7,,spray park,none,https://dpr.dc.gov/page/spray-parks,(202) 899-6004,Open,No,406383.925875,136572.1135,900345,RecPt_131,1731,{478AB9C6-3C7E-4418-805C-570905BF3AB2},JLAY,2022/08/11 23:34:41+00,JLAY,2024/08/27 17:28:57+00
-8580393.08366028,4710675.69105364,Glover Park Community Center,4001 CALVERT STREET NW,RECREATION CENTER,3,Stoddert Elementary School,none,none,https://dpr.dc.gov/page/glover-park-community-center,(202) 299-3324,Open,No,393151.1796875,139482.090375,224730,RecPt_132,1732,{F1618857-BD51-4E9A-BE45-0B49695B4926},JLAY,2022/08/11 23:34:41+00,JLAY,2024/03/08 00:55:28+00
-8575382.8490307,4719478.78823013,Shepherd Park Community Center,7800 14TH STREET NW,RECREATION CENTER,4,no,none,none,https://dpr.dc.gov/node/1530916,(202) 788-2234,Open,Fitness Room,397056.591625,146306.33,256319,RecPt_133,1733,{A81CE2B6-5F8E-47C5-B519-CED8883D6771},JLAY,2022/08/11 23:34:41+00,JLAY,2024/03/08 00:55:28+00
-8570058.8773132,4699491.49381247,Malcolm X Opportunity Center,1351 ALABAMA AVENUE SE,RECREATION CENTER,8,no,none,none,https://dpr.dc.gov/page/malcolm-x-opportunity-center,(202) 727-9152,Closed,No,401202.63,130797.63,289201,RecPt_134,1734,{CE7242D7-002A-4B70-9430-2BDB88B3D325},JLAY,2022/08/11 23:34:41+00,JLAY,2024/08/27 17:28:57+00
-8581076.90982424,4708742.93612928,Hardy Recreation Center Spray Park,4500 Q STREET NW,SPRAY PARK,3,no,spray park,Hardy Recreation Center Spray Park,https://dpr.dc.gov/page/spray-parks,(202) 282-2190,Open,No,392617.0945625,137982.968,284929,RecPt_135,1735,{9B5FDB40-E553-4598-94DB-538CF21FAEF3},JLAY,2022/08/11 23:34:41+00,JLAY,2022/08/11 23:34:41+00
-8574816.74991437,4713523.07459213,Roosevelt Aquatic Center,4301 13TH STREET NW,AQUATIC CENTER,4,no,indoor,none,https://dpr.dc.gov/page/roosevelt-aquatic-center,(202) 730-0583,Open,No,397495.7300625,141688.261125,252605,RecPt_136,1736,{01856881-FF3E-4F4A-91FB-6F77EF93D0E6},JLAY,2022/08/11 23:34:41+00,JLAY,2024/03/08 00:54:38+00
-8579569.57981623,4713206.15078494,Hearst Pool,3701 37TH STREET NW,POOL,3,no,outdoor,Hearst Pool,https://dpr.dc.gov/page/hearst-pool,(202) 671-1289,Open,No,393794.212375,141444.487875,335881,RecPt_137,1737,{727861D5-D831-42D2-AADC-7B0FDDCD3266},JLAY,2022/08/11 23:34:41+00,JLAY,2022/08/11 23:34:41+00
-8565027.84064831,4708551.30247388,Kenilworth Pool,4321 ORD STREET NE,POOL,7,no,outdoor,Kenilworth Pool,https://dpr.dc.gov/page/kenilworth-pool,(202) 258-6513,Open,No,405121.460375,137832.4799375,314577,RecPt_138,1738,{7FBCA80D-285F-45B4-9C1B-7CA106FC35C2},JLAY,2022/08/11 23:34:41+00,JLAY,2022/08/11 23:34:41+00
-8573238.44239498,4696875.68775399,Fort Greble Recreation Center,250 ELMIRA STREET SW,RECREATION CENTER,8,no,none,none,https://dpr.dc.gov/page/fort-greble-recreation-center-00,,Closed,no,398722.773875,128765.7935,315348,RecPt_139,1739,{BADB9D8B-8CCC-4E42-B561-B6FDDF849510},JLAY,2022/08/11 23:34:41+00,JLAY,2024/08/27 17:28:57+00
-8567487.40848296,4704659.60507857,Therapeutic Recreation Center,3030 G STREET SE,RECREATION CENTER,7,no,indoor,Therapeutic Aquatic Center,https://dpr.dc.gov/page/therapeutic-recreation-center,(202) 698-1794,Closed For Renovations,No,403206.33,134811.04,288770,RecPt_140,1921,{834AB6F7-292A-4B5B-9760-41DC52DC6DA5},JLAY,2024/03/08 00:28:50+00,DCGIS,2024/08/27 00:22:34+00
-8567487.40848296,4704659.60507857,Therapeutic Aquatic Center,3030 G STREET SE,AQUATIC CENTER,7,no,indoor,Therapeutic Aquatic Center,https://dpr.dc.gov/page/therapeutic-aquatic-center,(202) 645-5708 ,Closed For Renovations,No,403206.33,134811.04,288770,RecPt_141,1922,{1BEF767F-19FA-441F-ADD8-01E4CF92B08B},JLAY,2024/03/08 00:28:50+00,JLAY,2024/03/08 00:56:57+00
-8571752.71722062,4698567.19190861,Ballou Aquatic Center,3401 4TH STREET SE,AQUATIC CENTER,8,Ballou Senior HIgh School,indoor,Ballou Aquatic Center,https://dpr.dc.gov/page/ballou-aquatic-center,(202) 671-1289,Open,No,399881.71,130079.64,294567,RecPt_142,1924,{DCEE3B12-0DCE-44FF-AAD2-A6C6EB380D9E},JLAY,2024/03/08 00:48:00+00,JLAY,2024/06/20 18:49:58+00
-8572722.20406057,4710675.71014323,Reservoir Park Recreation Center,10 LOWER SERVICE COURT NW,RECREATION CENTER,5,no,indoor,Reservoir Park Aquatic Center,https://dpr.dc.gov/reservoirpark,(202) 299-2069,Open,Fitness Room,399126.64,139479.19,337838,RecPt_143,2241,{FCED7CBA-3209-49C7-87D2-A2861E5E40F9},JLAY,2024/06/20 18:49:58+00,JLAY,2024/06/20 18:49:58+00
-8572722.20406057,4710675.71014323,Reservoir Park Aquatic Center,10 LOWER SERVICE COURT NW,AQUATIC CENTER,5,no,indoor,Reservoir Park Aquatic Center,https://dpr.dc.gov/node/1729056,(202) 671-1289,Open,No,399126.64,139479.19,337838,RecPt_144,2242,{080886A2-9776-4065-91FA-EE1233E4E19E},JLAY,2024/06/20 18:49:58+00,JLAY,2024/06/20 18:49:58+00
-8572722.20406057,4710675.71014323,Reservoir Park RC Spray Park,10 LOWER SERVICE COURT NW,SPRAY PARK,5,no,none,none,https://dpr.dc.gov/reservoirpark,(202) 299-2069,Open,No,399126.64,139479.19,337838,RecPt_145,2243,{70CE5166-B58C-491B-B564-E4B4162A3A84},JLAY,2024/06/20 18:49:58+00,JLAY,2024/06/20 18:49:58+00
